Denominazione,Categoria,Comune,Indirizzo,Latitudine,Longitudine,Prezzo,Contatti
Museo della Statuaria Preistorica in Sardegna,"museo, galleria, raccolta",Laconi,"Piazza G. Marconi, 10",39.854474546,9.052288387,5.0,+390782693238//+393423507760
MEOC (Museo Etnografico Oliva Carta Cannas),"museo, galleria, raccolta",Aggius,"Via Monti di Lizu, 6",40.928234652,9.065460341,4.0,+39079621029//+393494533208
Museo del Banditismo,"museo, galleria, raccolta",Aggius,"Via Pretura, s.n.c.",40.92952259,9.065865433,4.0,+39079621029//+393494533208
Museo del Giocattolo Tradizionale della Sardegna,"museo, galleria, raccolta",Ales,"Via San Simeone, 9",39.774994428,8.831142701,3.0,+390783998072//+393406742512
Museo Diocesano d'Arte Sacra,"museo, galleria, raccolta",Ales,"Piazza Cattedrale, 1",39.768700749,8.816201724,3.0,+39078391974//+393287824283
Area archeologica Anghelu Ruju,area o parco archeologico,Alghero,"SP 42, Strada dei Due Mari",40.632537328,8.326859304,5.0,+393294385947
Area archeologica Santu Pedru,area o parco archeologico,Alghero,SS 127bis,40.623011368,8.403106557,10.0,+393294385947//+393490871963
Museo Casa Manno,"museo, galleria, raccolta",Alghero,"Via Santa Barbara, 23",40.55943437,8.312117249,5.0,+390799732026//+393911254574
Museo del Corallo,"museo, galleria, raccolta",Alghero,"Via XX Settembre, 8",40.55700098,8.31629348,5.0,+390799734045//+39079979054
Museo Diocesano d'Arte Sacra,"museo, galleria, raccolta",Alghero,"Piazza Duomo, s.n.c.",40.559204168,8.313139939,4.0,+390799733041
Museo Naturalistico Mare Nostrum Aquarium,"museo, galleria, raccolta",Alghero,"Via XX Settembre, 1",40.556693484,8.316091079,8.0,+39079978333
Nuraghe Palmavera,area o parco archeologico,Alghero,"Località Mastru Antoni, SS 127 bis km 45,450",40.594988547,8.242894099,5.0,+393294385947
M.U.B.A. Museo della Bonifica di Arborea,"museo, galleria, raccolta",Arborea,"Corso Italia, 24",39.773627097,8.580103276,3.0,+390783802005
Museo Alberto e Giovanni Antonio Castoldi - Museo Mineralogico - Collezione Diorami Dellacà,"museo, galleria, raccolta",Arbus,"Piazza G. Rolandi, s.n.c.",39.557369474,8.569823681,5.0,+393396939435//+393281540281
Ecomuseo della Montagna Sarda o del Gennargentu,"museo, galleria, raccolta",Aritzo,"Parco Comunale Pastissu, 3",39.950227438,9.192275755,3.0,+393898731853//+390784627200
Museo Bottega Del Fabbro,"museo, galleria, raccolta",Armungia,"Vico I G. Mazzini, 14",39.521873277,9.382265965,6.0,+390709589011
Museo Etnografico Sa Domu De Is Ainas,"museo, galleria, raccolta",Armungia,"Piazza Municipio, 3",39.522210147,9.383614924,6.0,+390709589011
Museo Storico Emilio e Joyce Lussu,"museo, galleria, raccolta",Armungia,"Via E. Lussu, s.n.c.",39.522364098,9.380800883,6.0,+390709589011
Complesso Nuragico La Prisgiona,area o parco archeologico,Arzachena,"SS 427, Località Capichera, 1",41.047599947,9.362415177,4.0,+393938975528//+393457200094
Nuraghe Albucciu,area o parco archeologico,Arzachena,SS 125 Olbia - Palau,41.067979532,9.409779341,4.0,+393457200094
Tomba di Giganti di Coddu Ecchju,area o parco archeologico,Arzachena,"SP 14, Località Coddu Ecchju",41.050189598,9.35595028,4.0,+393457200094//+393455760643
Tomba di Giganti di Li Lolghi,area o parco archeologico,Arzachena,"SP 115 per Luogosanto, km 45, Località M.Giu di Li Lolghi",41.066652557,9.333793866,4.0,+393457200380//+393457200094
Tomba di Giganti Moru,area o parco archeologico,Arzachena,SS 125 Olbia - Palau,41.069114938,9.412190539,4.0,+393455760538//+393457200094
Museo d'Arte Moderna e Contemporanea Antonio Ortiz Echague,"museo, galleria, raccolta",Atzara,"Piazza Antonio Ortiz Echague, 1",39.991563268,9.075344563,3.0,+39078465508//+393477983242
Polo Museale Casa Zapata,"museo, galleria, raccolta",Barumini,"Piazza Giovanni XXIII, s.n.c.",39.702938402,9.00005758,14.0,+390709368476
Museo del Vino - Enoteca Regionale della Sardegna,"museo, galleria, raccolta",Berchidda,"Via Gian Giorgio Casu, 5",40.788327955,9.170512742,3.0,+39079705268
Museo S'Omo e Sa Majarza,"museo, galleria, raccolta",Bidonì,"Via Monte, 9",40.11317212,8.937124793,3.0,+39078369044//+393483943842
Museo della Civiltà Pastorale e Contadina,"museo, galleria, raccolta",Bitti,"Via Goffredo Mameli, 52",40.477485471,9.381761332,2.5,+390784414314//+393333211346
Museo Multimediale del canto a tenore,"museo, galleria, raccolta",Bitti,"Via Goffredo Mameli, 52",40.477603091,9.381608638,2.5,+390784414314//+393333211346
Sito Archeologico di Romanzesu,area o parco archeologico,Bitti,"SS 389, km 54",40.530342934,9.324816115,4.0,+393333211346//+390784414314
Museo Civico Archeologico,"museo, galleria, raccolta",Bonorva,"Piazza S. Antonio, s.n.c.",40.418590354,8.766444132,4.0,+393485642611//+39079867894
Necropoli di Sant'Andrea Priu,area o parco archeologico,Bonorva,"SP 43, località Santa Lucia",40.421647881,8.847212066,6.0,+393485642611//+39079867894
Museo della Cattedrale di San Pietro di Sorres,"museo, galleria, raccolta",Borutta,"San Pietro di Sorres, s.n.c.",40.520138601,8.749316593,3.0,+393393312355//+39079824001//+39079824025
Basilica di San Pietro Extra Muros,monumento o complesso monumentale,Bosa,"Via San Pietro, s.n.c.",40.289260887,8.51990324,2.0,+390785373286//+393335445675//+393403955048//+393298505079
Chiesa di Nostra Signora di  Regnos Altos,monumento o complesso monumentale,Bosa,"Via Canonico Nino Gavino, 9",40.297151072,8.504528164,4.0,+390785373286
Collezione permanente Pinanoteca Antonio Atza,"museo, galleria, raccolta",Bosa,"Corso Vittorio Emanuele II, 74",40.295751284,8.501643964,4.5,+393288789521
Museo Casa Deriu,"museo, galleria, raccolta",Bosa,"Corso Vittorio Emanuele II, 59",40.296003939,8.501736358,4.5,+393288789521
Museo delle Conce,"museo, galleria, raccolta",Bosa,"Via Sas Conzas, 62",40.294448575,8.500394608,3.5,+393288789521
Museo d'Arte Contemporanea,"museo, galleria, raccolta",Buddusò,"Corso Antonio Segni, s.n.c.",40.570991034,9.258464706,2.5,+390795610041//+393925234333//+39079715519
Galleria Henry,monumento o complesso monumentale,Buggerru,"Via Pranu Sartu, s.n.c.",39.398313021,8.399033217,10.0,+393341142910
Museo del Minatore,"museo, galleria, raccolta",Buggerru,"Via Marina, s.n.c.",39.40030582,8.400630419,2.5,+393341142910
Castello di Burgos,monumento o complesso monumentale,Burgos,"Vico Castello, s.n.c.",40.388520713,8.998935249,3.0,+393479018930
Museo dei Castelli,"museo, galleria, raccolta",Burgos,"Vico Castello, s.n.c.",40.38922335,8.996072213,3.0,+393479018930
Museo Civico Giovanni Marongiu,"museo, galleria, raccolta",Cabras,"Via Tharros, 121",39.924835242,8.525467942,6.5,+390783290636
Torre di San Giovanni di Sinis,monumento o complesso monumentale,Cabras,"SP 6, Località San Giovanni di Sinis",39.873039012,8.438909733,4.0,+390783370019
Anfiteatro Romano,monumento o complesso monumentale,Cagliari,"Via Sant'Ignazio da Laconi, 27",39.224022454,9.113394178,3.0,+393662562826//+390706670168
Castello di San Michele,monumento o complesso monumentale,Cagliari,"Via Sirai, s.n.c.",39.244764832,9.109782936,3.0,+3907015240479//+393466673657
Centro Comunale d'Arte e Cultura Exmà,"museo, galleria, raccolta",Cagliari,"Via San Lucifero, 71",39.214517877,9.120537388,5.0,+39070666399//+393466673565
Galleria Comunale d'Arte,"museo, galleria, raccolta",Cagliari,"Largo giuseppe Dessì, s.n.c.",39.225970756,9.115986708,6.0,+390706776454//+390706777598
Museo d'Arte Siamese Stefano Cardu,"museo, galleria, raccolta",Cagliari,"Piazza Arsenale, 1",39.222757067,9.117319475,3.0,+390706776543
Museo del Duomo,"museo, galleria, raccolta",Cagliari,"Via Fossario, 5",39.218477224,9.117011055,4.0,+393282687731//+39070680244
MUTSEU - Museo del Tesoro e Area Archeologica di S. Eulalia,"museo, galleria, raccolta",Cagliari,"Vico del Collegio, 2",39.214631864,9.114722791,5.0,+393489310225
Antico Palazzo di Città,"museo, galleria, raccolta",Cagliari,"Piazza Palazzo, 6",39.218639742,9.116698607,9.0,+390706776482
Raccolta delle Cere Anatomiche di Clemente Susini,"museo, galleria, raccolta",Cagliari,"Piazza Arsenale, s.n.c.",39.222009352,9.117132752,1.5,+390706754027//+390706757624//+390706754083
Villa di Tigellio,area o parco archeologico,Cagliari,"Via Carbonazzi, 7",39.22059783,9.108515754,2.0,+393662562826
Museo Diocesano di Arte Sacra Santa Giusta,"museo, galleria, raccolta",Calangianus,"Via Rosario, s.n.c.",40.921251298,9.195151533,4.0,+393393469370//+393471884456
Museo d'arte contemporanea MACC,"museo, galleria, raccolta",Calasetta,"Via Savoia, 2",39.110896221,8.366680619,4.0,+390781887219
Museo Archeologico Villa Sulcis,"museo, galleria, raccolta",Carbonia,"Via Campania, s.n.c.",39.163601197,8.525010773,6.0,+3907811867304//+393458886058
Museo del Carbone,"museo, galleria, raccolta",Carbonia,"SS 126, Serbariu",39.160440465,8.510568003,8.0,+39078162727
"Museo dei Paleo Ambienti Sulcitani ""E.A. Martel""","museo, galleria, raccolta",Carbonia,"SS 126, Serbariu",39.159256476,8.51186103,6.0,+393402689043
Parco Archeologico Monte Sirai,area o parco archeologico,Carbonia,"SS 126, Monte Sirai",39.177485729,8.488831428,6.0,+3907811888256//+393457559751
Museo Casa del Duca,"museo, galleria, raccolta",Carloforte,"Via della Cisterna del Re, 20-24",39.146683895,8.305560575,5.0,+3907818589260//+3907818589207
Museo dell'intreccio Mediterraneo,"museo, galleria, raccolta",Castelsardo,"Via Guglielmo Marconi, s.n.c.",40.915678871,8.712581305,3.0,+390796014769//+393471118547
Museum Ampuriense - Cattedrale S. Antonio Abate,"museo, galleria, raccolta",Castelsardo,"Via Manganella, 42",40.91682331,8.71274258,4.0,+390796393099
Basilica della Santissima Trinità di Saccargia,monumento o complesso monumentale,Codrongianos,SS 597,40.671185823,8.689498643,3.0,+393470007882
Museo dell'Olio dr. Giorgio Zampa,"museo, galleria, raccolta",Cuglieri,"Corso Umberto I, 68",40.191090542,8.568668139,3.0,+393405291175
Museo della Tradizione Olearia Sa Mola De Su Notariu,"museo, galleria, raccolta",Dolianova,"Viale Europa, 18",39.375629864,9.176865478,25.0,+39070740651//+393355468560
Casa Museo,"museo, galleria, raccolta",Domus de Maria,"Piazza Vittorio Emauele, s.n.c.",38.944377834,8.865178631,1.6,+390707331424
Area archeologica Tiscali,area o parco archeologico,Dorgali,"Supramonte di Dorgali, località Monte Tiscali",40.241609035,9.492120287,5.0,+393484780104
Museo Archeologico Dorgali,"museo, galleria, raccolta",Dorgali,"Via Lamarmora, s.n.c",40.291944275,9.588417192,3.0,+393484780104
Museo della Foca Monaca,"museo, galleria, raccolta",Dorgali,"Viale Bue Marino, 1",40.282870309,9.633157416,5.0,+393460366858
Villaggio Nuragico di Serra Orrios,area o parco archeologico,Dorgali,SP 38,40.333727011,9.537758762,5.0,+393484780104
Villaggio Nuragico-Romano Nuraghe Mannu,area o parco archeologico,Dorgali,Strada per Nuraghe Mannu,40.259244885,9.620495961,4.0,+393484780104
Area archeologica di Antas (Tempio Punico Romano),area o parco archeologico,Fluminimaggiore,Località Antas,39.393767322,8.500245029,4.0,+393478174989
Museo Etnografico Antico Mulino ad acqua Licheri,"museo, galleria, raccolta",Fluminimaggiore,"Piazza Antonio Gramsci, s.n.c.",39.435645269,8.497749501,3.0,+393478174989
Area archeologica delle Terme Romane,area o parco archeologico,Fordongianus,"Via Vittorio Veneto, s.n.c.",39.996879548,8.808503021,4.0,+39078360157
Casa Aragonese,monumento o complesso monumentale,Fordongianus,"Via Traiano, 10",39.99538527,8.80930363,4.0,+39078360157
Museo Etnografico sa Domo E' Marras,"museo, galleria, raccolta",Galtellì,"Via Garibaldi, 14",40.386027864,9.614598633,5.0,+393472211296//+393451312441//+393471942842
Museo Casa Porcu Satta,"museo, galleria, raccolta",Gavoi,"Via Roma, 187",40.158704827,9.194235241,2.0,+39078453633
Civico Museo del Cavallino della Giara,"museo, galleria, raccolta",Genoni,"Via Chiesa, 7",39.795152599,9.007223692,3.5,+393391676863
P.Ar.C. - Paleo Archeo Centro,"museo, galleria, raccolta",Genoni,"Località Santu Antine, s.n.c.",39.798129219,9.002346637,3.5,+393391676863
Museo della Giara,"museo, galleria, raccolta",Gesturi,"Via Camillo Benso Conte di Cavour, 4",39.732849335,9.019587251,2.0,+390709369052
Casa museo Antonio Gramsci,"museo, galleria, raccolta",Ghilarza,"Corso Umberto I, 57",40.123039454,8.837594453,4.0,+39078553075
Parco Archeologico di Pranu Muttedu,area o parco archeologico,Goni,Località Pranu Muttedu,39.567728665,9.266941764,5.0,+39070982059
Museo Turcus e Morus,"museo, galleria, raccolta",Gonnostramatza,"Piazza San Michele Arcangelo, 5",39.680725683,8.833471808,3.0,+39078392587//+393476008108//+393477299298
Casa Murgia,"museo, galleria, raccolta",Guspini,"Via Petrarca, 2",39.539246177,8.624635363,3.0,+39070973173//+393384592082//+393891643692
"Complesso Minerario di Montevecchio - Miniera di Piccalinna, Palazzina della Direzione e Pozzo Sant'Antonio",monumento o complesso monumentale,Guspini,"Piazzale Rolandi, 2",39.556051312,8.580173821,5.0,+39070973173//+393384592082//+393891643692
Galleria Anglosarda,monumento o complesso monumentale,Guspini,"Miniera Montevecchio, SP 66",39.555574129,8.577790516,12.0,+393384592082//+393891643692//+390781491300
Museo Monte Tempo,"museo, galleria, raccolta",Guspini,"Via Ferracciu, 1",39.540392004,8.625106412,3.0,+39070973173//+393384592082//+393891643692
Grotta di Santa Barbara - Miniera di San Giovanni,monumento o complesso monumentale,Iglesias,"Frazione San Giovanni, Miniera, SS 126",39.289501453,8.489563599,15.0,+390781274507
Museo dell'Arte Mineraria,"museo, galleria, raccolta",Iglesias,"Via Roma, 47",39.311332476,8.531991194,5.0,+390781350037//+393394051486//+393389221392
Porto Flavia,monumento o complesso monumentale,Iglesias,"Strada Provinciale, 83",39.336114836,8.408094875,10.0,+390781274507
Antiquarium Comunale di Irgoli,"museo, galleria, raccolta",Irgoli,"Via San Michele, 14",40.409521237,9.632715883,2.0,+390784979074//+393806390589
Complesso Nuragico di Janna 'e Pruna e Fonte Sacra di Su Notante,area o parco archeologico,Irgoli,Monte 'E Senes,40.485488131,9.648200379,2.0,+390784979074//+393806390589
MARATE - Museo Per L'Arte del Rame e del Tessuto,"museo, galleria, raccolta",Isili,"Piazza San Giuseppe Calasanzio, 8",39.74206535,9.106801455,2.5,+390782802641//+393804553856
Nuraghe Is Paras,area o parco archeologico,Isili,"Via Grazia Deledda, s.n.c.",39.748621779,9.107473956,3.0,+390782802641//+393804553856//+393391121384//+393482231271
Museo Civico Archeologico Etnografico,"museo, galleria, raccolta",Ittireddu,"Via San Giacomo, 3",40.544071881,8.902356552,3.0,+39079767623
Museo Diocesano La Maddalena,"museo, galleria, raccolta",La Maddalena,"Via Baron Manno, s.n.c.",41.213344805,9.405483162,3.0,+393491534391
Parco Archeologico Seleni,area o parco archeologico,Lanusei,"Località Bosco Seleni, s.n.c.",39.877159107,9.520683172,4.0,+39078241051
Museo Muda,"museo, galleria, raccolta",Las Plassas,"Via Alessandro Manzoni, 4",39.681610465,8.985050062,5.0,+390709790410//+393475383803
Museo Naturalistico del Territorio Giovanni Pusceddu,"museo, galleria, raccolta",Lunamatrona,"Strada Comunale Mogoro-Lunamatrona, Località Spinarba",39.656782918,8.865562283,6.0,+390709300242//+390709341009
Collezione Forteleoni,"museo, galleria, raccolta",Luras,"Corso Carlo Alberto, 1",40.936605892,9.175382805,5.0,+39079647547
"Museo Etnografico Galluras, Il Museo della Femina Agabbadora","museo, galleria, raccolta",Luras,"Via Nazionale, 35",40.935480007,9.175296705,5.0,+393683376321
Area archeologica di Tamuli,area o parco archeologico,Macomer,Strada Comunale Monte,40.260543322,8.717727983,4.0,+393479481337//+390785743044//+39078570475
Museo Etnografico Le Arti Antiche,"museo, galleria, raccolta",Macomer,"Corso Umberto I, 225",40.267509337,8.776197603,4.0,+390785743044//+39078570475//+393479481337
Necropoli di Filigosa,area o parco archeologico,Macomer,SS 129bis,40.277643516,8.769827597,4.0,+390785743044//+39078570475//+393479481337
Nuraghe Santa Barbara,area o parco archeologico,Macomer,SS 131,40.275947973,8.782898061,4.0,+390785743044//+39078570475//+393479481337
Nuraghe Succoronis,area o parco archeologico,Macomer,SS 129 bis,40.284626573,8.749743055,4.0,+390785743044//+39078570475//+393479481337
Museo della Cultura e del Lavoro,"museo, galleria, raccolta",Mamoiada,"Via Sardegna, 17",40.213541102,9.283409602,4.0,+390784569018
Museo delle Maschere Mediterranee,"museo, galleria, raccolta",Mamoiada,"Piazza Europa, 15",40.210999793,9.283692808,5.0,+390784569018
Casa Museo Is Lollas de Is Aiaiusu,"museo, galleria, raccolta",Mandas,"Via S. Antonio, 15",39.653692322,9.126772797,2.0,+393491973677//+39070987801//+393489335805
Museo di Arte Sacra Peregrinatio Fidei,"museo, galleria, raccolta",Mandas,"Piazza Carlo Alberto, s.n.c.",39.651179325,9.12674654,2.0,+393493607889//+39070987801//+393489335805
Geomuseo Monte Arci Stefano Incani,"museo, galleria, raccolta",Masullas,"Piazza Convento, s.n.c.",39.701379103,8.78069972,4.0,+393891777100//+390783990251
Museo I Cavalieri delle Colline,"museo, galleria, raccolta",Masullas,"Piazza San Leonardo, s.n.c.",39.701737276,8.784314502,4.0,+393891777100//+390783991122
Area archeologica Nuraghe Nolza,area o parco archeologico,Meana Sardo,Località Nolza,39.917013888,9.073189374,3.0,+39078464183//+393311092120
Area archeologica Cuccurada,area o parco archeologico,Mogoro,SP 44,39.664461045,8.747882739,2.0,+393281156539
Ecomuseo Miniere Rosas,"museo, galleria, raccolta",Narcao,"Via Rosas, s.n.c.",39.202707295,8.719455756,8.0,+3907811855139//+393292773342
Museo dell'Immagine e del Design Interattivo,"museo, galleria, raccolta",Norbello,"Vico San Giovanni, 10",40.138607063,8.833959265,3.0,+390785519927//+393473846907
MAN Museo d'Arte Provincia di Nuoro,"museo, galleria, raccolta",Nuoro,"Via Sebastiano Satta, 27",40.321512772,9.333757112,5.0,+390784252110
Museo Deleddiano - Casa Natale di Grazia Deledda,"museo, galleria, raccolta",Nuoro,"Via Grazia Deledda, 42",40.323706239,9.336954694,3.0,+39078436101
Museo della Vita e delle Tradizioni Popolari Sarde,"museo, galleria, raccolta",Nuoro,"Via Antonio Mereu, 56",40.316755003,9.3356492,5.0,+390784257035//+390784242900
Grotta Corbeddu,monumento o complesso monumentale,Oliena,"SP 46, Valle di Lanaitto",40.255452891,9.486493815,5.0,+393478249517
Villaggio Nuragico Sa Sedda e Sos Carros,area o parco archeologico,Oliena,"SP 46, Valle di Lanaitto, località Carros",40.258229065,9.486172783,5.0,+393478249517
Casa Museo Carmelo Floris,"museo, galleria, raccolta",Olzai,"Via S. Anastasio, 30",40.18152812,9.149970445,2.5,+393664625022//+393486094727
Museo Nivola,"museo, galleria, raccolta",Orani,"Via Gonare, 2",40.247027694,9.180189916,5.0,+390784730063
Museo Archeologico Antiquarium Arborense,"museo, galleria, raccolta",Oristano,"Piazza Giovanni Corrias, s.n.c.",39.904440581,8.592629777,5.0,+390783791262
Pinacoteca Comunale Carlo Contini,"museo, galleria, raccolta",Oristano,"Via Sant'Antonio, s.n.c.",39.904176171,8.589191871,4.0,+390783791262//+390783791204
Area archeologica Su Nuraxi Arrubiu,area o parco archeologico,Orroli,"SP 10, località Su Pranu",39.662138402,9.297700986,4.0,+390782847269//+393297867983
Museo Omu Axiu,"museo, galleria, raccolta",Orroli,"Via Roma, 46",39.69218923,9.253340754,3.0,+390782845023
Sa domu de Su Nuraxi Arrubiu,"museo, galleria, raccolta",Orroli,"Via Roma, 119",39.693808068,9.252515452,5.0,+390782847269//+393297867983
Museo del Grano,"museo, galleria, raccolta",Ortacesus,"Via J.F. Kennedy, 25",39.539237929,9.083652694,2.0,+390709819027
Su Tempiesu,area o parco archeologico,Orune,Località Sa Costa e Sa Binza,40.41092889,9.412900728,3.0,+393287565148
Parco Archeologico e Naturalistico del Taccu di Osini,area o parco archeologico,Osini,Altopiano Del Taccu,39.826070182,9.486141549,3.0,+393297643343//+393204960927//+393287623515
Civico Museo Archeologico Alle Clarisse,"museo, galleria, raccolta",Ozieri,"Piazza P. Micca, s.n.c.",40.585950038,9.003232234,5.0,+390797851052//+390797851090//+39079787638
Grotta di San Michele,area o parco archeologico,Ozieri,"Via San Michele, s.n.c.",40.580887106,9.004165423,3.0,+39079787638
Museo Diocesano d'Arte Sacra,"museo, galleria, raccolta",Ozieri,"Via Umberto I, 37",40.584508747,9.002405129,3.0,+39079786093//+3934715460083//+39079787638
Pinacoteca Giuseppe Altana,"museo, galleria, raccolta",Ozieri,"Via Alcide De Gasperi, 2",40.588031068,9.002038787,3.0,+39079787638
Sant'Antioco di Bisarcio,monumento o complesso monumentale,Ozieri,SS 597,40.644717636,8.892771753,3.0,+39079787638//+390797851052
Museo Civico Archeologico,"museo, galleria, raccolta",Padria,"Via Nazionale, 3",40.397541888,8.630523572,1.0,+39079807018//+393402836246//+393479384533
Fortezza di Militare di Monte Altura,monumento o complesso monumentale,Palau,"SS 133, strada per Porto Rafael",41.185211074,9.363028891,5.0,+393203407436
Museo Etnografico,"museo, galleria, raccolta",Palau,"Via Nazionale, s.n.c.",41.178715705,9.380041979,2.5,+393470913032
CULTER - Museo del Coltello Internazionale,"museo, galleria, raccolta",Pattada,"Via Vittorio Emanuele, 64",40.581816619,9.110495841,4.0,+39079755918
Museo dell'Ossidiana,"museo, galleria, raccolta",Pau,"Via San Giorgio, 8",39.792753916,8.803149668,6.0,+390783934011
Museo della Donna,"museo, galleria, raccolta",Pauli Arbarei,"Via Roma, 12/ Via Mannu, 3",39.661770922,8.920809429,2.0,+39070939039
Complesso Nuragico Area di Santa Cristina,area o parco archeologico,Paulilatino,SS 131,40.061226346,8.731650517,7.0,+39078555438//+393477746747
Museo Archeologico Etnografico Palazzo Atzori,"museo, galleria, raccolta",Paulilatino,"Via Nazionale, 127-129",40.082909257,8.763268893,7.0,+39078555438//+393477746747
Museo Diocesano - Sacristia Santa Maria Degli Angeli,"museo, galleria, raccolta",Perfugas,"Piazza Domenico Alberto Azuni, s.n.c.",40.829042914,8.886449611,4.0,+390796393099//+393497777103//+393459388019
Quadreria Spano,"museo, galleria, raccolta",Ploaghe,"Piazza San Pietro, s.n.c.",40.66641212,8.749052846,2.5,+393493672110
Città Romana e Parco Archeologico di Turris Libisonis,area o parco archeologico,Porto Torres,"Via Ponte Romano, 99",40.837336592,8.396267448,4.0,+39079514433
Castello della Fava,monumento o complesso monumentale,Posada,"Via Eleonora d'Arborea, s.n.c.",40.637988567,9.723759427,2.5,+393474801421
Museo del Cavallo di Pozzomaggiore,"museo, galleria, raccolta",Pozzomaggiore,"Piazza Convento, 39",40.396742287,8.660599079,2.0,+393408070619//+393283831764//+39079801969
Museo Unico Regionale dell'Arte Tessile Sarda,"museo, galleria, raccolta",Samugheo,"Via Bologna, s.n.c.",39.955086653,8.946882901,2.5,+390783631052
Museo della Civiltà del Mare,"museo, galleria, raccolta",San Teodoro,"Via Niuloni, 1",40.779648608,9.674205849,2.0,+390784866180//+393477256278
Castello Giudicale Eleonora d'Arborea Museo del Risorgimento e Collezione di Ceroplastiche,"museo, galleria, raccolta",Sanluri,"Via Generale Nino Villa Santa, 1",39.563271179,8.897919344,6.0,+390709307184//+393939916135
Museo del Convento dei Cappuccini,"museo, galleria, raccolta",Sanluri,"Via San Rocco, 6",39.56592009,8.897787382,3.0,+390703293920
Area archeologica di Pani Loriga,area o parco archeologico,Santadi,Località Pani Loriga,39.090787061,8.689304705,5.0,+390781954203//+393488866797
Museo Civico Archeologico Santadi,"museo, galleria, raccolta",Santadi,"Via Umberto I, 17",39.093913366,8.717401801,5.0,+390781954203//+393488866797
Museo Etnografico Sa Domu Antiga,"museo, galleria, raccolta",Santadi,"Via Mazzini, 45",39.09283503,8.715480956,5.0,+393488866797
Forte Sabaudo Forte Su Pisu,monumento o complesso monumentale,Sant'Antioco,"Via Castello, s.n.c.",39.070659707,8.450871014,2.5,+390781800596//+393897962114
Museo Archeologico Ferruccio Barreca,"museo, galleria, raccolta",Sant'Antioco,"Via Sabatino Moscati, 1",39.075786259,8.45175417,6.0,+39078182105//+393897962114
Museo Etnografico Su Magasinu e Su Binu,"museo, galleria, raccolta",Sant'Antioco,"Via Necropoli, 24d",39.07108281,8.449827376,3.0,+393890505107//+390781800596//+393897962114
Necropoli De Is Pirixeddus,area o parco archeologico,Sant'Antioco,"Via Castello, s.n.c.",39.071735192,8.451583326,5.0,+39078182105//+393701592448//+39078180301//+390781800596//+393897962114
Museo della Tecnologia Contadina - Maestro Francesco Salis,"museo, galleria, raccolta",Santu Lussurgiu,"Via Deodato Meloni, 1",40.141712257,8.652152996,5.0,+393407706673//+393496868600
Area archeologica di Santa Anastasia,area o parco archeologico,Sardara,"Vico Eleonora D'Arborea, 10",39.616787422,8.820006709,5.0,+390709386183//+390709386011
Civico Museo Archeologico Villa Abbas,"museo, galleria, raccolta",Sardara,"Piazza della Libertà, 7",39.615917835,8.821982813,5.0,+390709386183//+390709386011
Museo della Città - Palazzo di Città,"museo, galleria, raccolta",Sassari,"Corso Vittorio Emanuele II, 35",40.728013263,8.559924444,4.0,+390792008072//+390792015122//+393314377156
Museo Diocesano di Sassari,"museo, galleria, raccolta",Sassari,"Piazza del Duomo, s.n.c.",40.72671167,8.558778392,2.0,+39079232067//+393472174128
Museo Domu De Janas La Rocca,"museo, galleria, raccolta",Sedini,"Via Nazionale, 35",40.848449262,8.818156545,8.0,+39079589215//+393498440436//+39079588581
Museo Sa Domu Nosta,"museo, galleria, raccolta",Senorbì,"Via Scaledda, 1",39.533760629,9.131838072,3.0,+390709809071
Area archeologica Santa Vittoria Serri,area o parco archeologico,Serri,Strada Comunale Santa Vittoria,39.712685069,9.105169859,5.0,+393460669068
Palazzina Liberty - Museo della civiltà contadina,"museo, galleria, raccolta",Seui,"Via Roma, 241",39.839742197,9.322788644,5.0,+390782539002
Museo delle Tradizioni Agroalimentari della Sardegna - Casa Steri,"museo, galleria, raccolta",Siddi,"Via Roma, 2",39.671648076,8.88878404,5.0,+393496304621
Museo Ornitologico della Sardegna,"museo, galleria, raccolta",Siddi,"Piazza Leonardo da Vinci, s.n.c.",39.671812206,8.888468968,2.0,+39070939888//+393475116787
Parco Naturalistico Archeologico Sa Fogaia,area o parco archeologico,Siddi,Giara di Siddi,39.662977791,8.878641843,2.0,+39070939888//+393475116787
Castello di Acquafredda,monumento o complesso monumentale,Siliqua,SS 293,39.261990735,8.820316702,6.0,+393491564023//+393497428014
Museo Civico Archeologico e Pinacoteca,"museo, galleria, raccolta",Sinnai,"Via P. Colletta, 20",39.302004158,9.202034006,2.0,+393406671868
Casa Museo  della Tecnologia Contadina Tiu Virgiliu,"museo, galleria, raccolta",Suni,"Via Regina Margherita, 7",40.279113278,8.548135445,5.0,+393288789521
Necropoli Chirisconis,area o parco archeologico,Suni,SS 292 bis,40.331145705,8.593086605,2.5,+393288789521
Nuraghe Nuraddeo,area o parco archeologico,Suni,SS 292 bis,40.324299183,8.57997115,2.5,+393288789521
Nuraghe Seneghe,area o parco archeologico,Suni,"Via Bosa, s.n.c.",40.279216862,8.539274442,2.5,+393288789521
Parco Archeologico,area o parco archeologico,Suni,"Vico B Bosa, 3",40.279400365,8.547827681,5.0,+393288789521
Museo Diocesano San Pietro Apostolo,"museo, galleria, raccolta",Tempio Pausania,"Via Villa Marina, 1",40.902965239,9.104283154,4.0,+390796393099//+393459388019
Nuraghe Majori,area o parco archeologico,Tempio Pausania,SS 133,40.919447695,9.096851107,3.5,+393472995933//+393203060634
Area di S'Urbale,area o parco archeologico,Teti,"Via Roma, 7",40.085631954,9.109598278,2.5,+39078468120//+3907849364481
Museo Archeologico Comprensoriale,"museo, galleria, raccolta",Teti,"Via Roma, 7",40.097035648,9.121007812,2.5,+39078468120
Santuario Nuragico di Abini,area o parco archeologico,Teti,"Via Roma, 7",40.145460165,9.092964759,2.5,+39078468120
Complesso Nuragico di Santu Antine,area o parco archeologico,Torralba,SP 21,40.486504236,8.769904623,8.0,+39079847481//+393664353484//+393479138479
Complesso Monumentale Comprendente La Cattedrale di S. Maria di Monserrato e Borgo Medievale,monumento o complesso monumentale,Tratalias,"Piazza Chiesa, s.n.c.",39.097975559,8.572070511,2.5,+390781688046//+390781697023
Museo dell'olivo e dell'olio e Museo degli strumenti musicali - Villa Asquer,"museo, galleria, raccolta",Tuili,"Piazza San Pietro, s.n.c.",39.715234422,8.958843543,4.0,+390700950283//+393479446052
Museo Stazione dell'Arte,"museo, galleria, raccolta",Ulassai,SP 11,39.803663782,9.511429619,6.0,+390782787055
Museo Archeologico di Viddalba,"museo, galleria, raccolta",Viddalba,"Via Giovanni Maria Angioy, 5",40.916394607,8.894386826,3.0,+393273834604
Museo Civico Archeologico Villa Leni,"museo, galleria, raccolta",Villacidro,"Piazza Zampillo, 1",39.456778972,8.732123755,2.0,+3907093442215
Area archeologica Troculu,area o parco archeologico,Villagrande Strisaili,"SS 389 var. Buddusò Correboi, località Genna Troculu",39.989221335,9.408174082,3.0,+39078232704//+393939020917
Area di Sa Carcaredda,area o parco archeologico,Villagrande Strisaili,SS 389 var. Buddusò Correboi,39.99218819,9.427436893,3.0,+39078232704//+393939020917
S'Arcu 'e Is Forros,area o parco archeologico,Villagrande Strisaili,"SS 389 var. Buddusò Correboi, località Arcu e Is Forros",40.002023634,9.400515256,3.0,+39078232704//+393939020917
Area di Pottu Codinu,area o parco archeologico,Villanova Monteleone,SS 292,40.487202751,8.519114182,2.0,+393381586752//+393381809055//+393668412916//+39079960607
Museo Etnografico Sa Domo Manna,"museo, galleria, raccolta",Villanova Monteleone,"Via Papa Giovanni XXIII, 8",40.503002947,8.471421837,2.0,+39079960268
Villaggio Nuragico Nuraghe Appiu,area o parco archeologico,Villanova Monteleone,"Strada consortile Monte Cuccu, Baddu 'e Pessighes",40.445358988,8.420052163,2.5,+393381586752//+393381809055//+393668412916
Parco e Museo Genna Maria,area o parco archeologico,Villanovaforru,"Piazza Costituzione, 4/ Località Monte Genna Maria",39.632759931,8.868341374,4.0,+390709300050//+390709300048
Area archeologica Su Mulinu,area o parco archeologico,Villanovafranca,Strada Comunale Cuccuru Meu,39.634364269,8.994152835,3.0,+390709367458
Civico Museo Archeologico Su Mulinu,"museo, galleria, raccolta",Villanovafranca,"Piazza Risorgimento, 6",39.645751062,9.001293255,3.0,+390709367458
Parco Archeologico Montessu,area o parco archeologico,Villaperuccio,"SP 80, Località Montessu",39.133402932,8.667470024,5.0,+393407433521
Fortezza Vecchia,monumento o complesso monumentale,Villasimius,Località Torre Vecchia,39.116166082,9.503739414,1.0,+390707930290//+390707930232
Museo Archeologico di Villasimius,"museo, galleria, raccolta",Villasimius,"Via Aventino Frau, 5",39.14374111,9.518478568,3.0,+390707930290
Area archeologica Nuraghe Losa,area o parco archeologico,Abbasanta,SS 131 Carlo Felice,40.116863973,8.790317545,5.0,+39078552302//+393319128790
Necropoli di Li Muri di Arzachena,area o parco archeologico,Arzachena,SS 427,41.07012655,9.321715088,4.0,+393457200094
Museo Rossoblù,"museo, galleria, raccolta",Quartu Sant'Elena,"Via Armando Diaz, 77",39.243800843,9.184345107,5.0,+393476413293
Tempio di Malchittu,area o parco archeologico,Arzachena,Località Malchittu,41.0790339,9.4105799,4.0,+393457200094
Area archeologica Su Nuraxi,area o parco archeologico,Barumini,"Viale Su Nuraxi, s.n.c./ SP 44 km 0,55",39.705902323,8.990714021,14.0,+390709368128//+393771805443//+393771716166
Museo Archeologico Nazionale,"museo, galleria, raccolta",Cagliari,"Piazza Arsenale, 1",39.222394763,9.116764118,7.0,+3907060518245//+3907060518248//+39070655911
Pinacoteca nazionale di Cagliari,"museo, galleria, raccolta",Cagliari,"Piazza Arsenale, 1",39.22294634,9.117273328,4.0,+39070662496//+39070655911
Centro di educazione ambientale - Laguna di Nora,"museo, galleria, raccolta",Pula,"Viale Nora, s.n.c. - Laguna di Nora",38.98909642,9.012144276,8.0,+390709209544//+393331864668
Spazio San Pancrazio,monumento o complesso monumentale,Cagliari,"Piazza Arsenale, 1",39.22165829,9.116773169,4.0,+3907060518245//+3907060518248//+39070655911
Museo dell'archeologia e del territorio - MATER,"museo, galleria, raccolta",Mamoiada,"Via G. Manno, 18",40.212869227,9.283694547,4.0,+390784569018
Museo della Valle dei Nuraghi del Logudoro-Meilogu,"museo, galleria, raccolta",Torralba,"Via Carlo Felice, 151",40.513930458,8.765953759,6.0,+39079847481//+393664353484//+393479138479
Museo Antoine De Saint-Exupéry - MASE,"museo, galleria, raccolta",Alghero,"Via Porto Conte, s.n.c., Torre di Porto Conte",40.593630073,8.204315564,5.0,+393295658813
META - Museo etnografico di Abbasanta,"museo, galleria, raccolta",Abbasanta,"Via S. Caterina, 25",40.124741737,8.821898921,2.5,+39078552302//+393319128790
Compendio Garibaldino di Caprera,"museo, galleria, raccolta",La Maddalena,Isola di Caprera,41.216430485,9.461617533,7.0,+390789727162//+390789726015//+393357505401
Memoriale Giuseppe Garibaldi,"museo, galleria, raccolta",La Maddalena,Forte Arbuticci - Isola di Caprera,41.229399188,9.471098627,6.0,+390789727162//+390789726015
MAGMMA - Museo d’arte grafica mediterraneo Marchionni,"museo, galleria, raccolta",Villacidro,"Via Vittorio Emanuele, 15",39.457970751,8.733165303,5.0,+393403473320
Museo Casa Deriu Tresnuraghes,"museo, galleria, raccolta",Tresnuraghes,"Via San Giorgio, 16",40.251247378,8.518426127,4.0,+39078535509
CIMA - Civico Museo di Allai,"museo, galleria, raccolta",Allai,"Via Parrocchia, 15",39.956759438,8.864133596,3.0,+393288789521
Antiquarium Turritano e zona archeologica,"museo, galleria, raccolta",Porto Torres,"Via Ponte Romano, 99",40.838353453,8.397059483,4.0,+39079514433
Carcere baronale spagnolo,"museo, galleria, raccolta",Seui,"Via Sassari, 47",39.840437717,9.320536148,5.0,+390782539002
Casa Farci,"museo, galleria, raccolta",Seui,"Via Roma, 166",39.839701221,9.322548836,5.0,+390782539002
Area archeologica di Nora,area o parco archeologico,Pula,"Viale Nora, s.n.c.",38.984184856,9.015866942,6.0,+390709209366//+390709209138
Galleria Civica,"museo, galleria, raccolta",Seui,"Via della Sapienza, 38",39.839596479,9.324165586,5.0,+390782539002
Altare prenuragico di Monte d'Accoddi,area o parco archeologico,Sassari,Strada vicinale Monte d'Accoddi,40.790712457,8.448955222,4.0,+393348074449//+390792008072//+39079514433
Museo nazionale archeologico ed etnografico Giovanni Antonio Sanna,"museo, galleria, raccolta",Sassari,"Via Roma, 64",40.722540468,8.567672176,3.0,+39079272203
Pinacoteca nazionale di Sassari,"museo, galleria, raccolta",Sassari,"Via Santa Caterina, 4",40.72719247,8.559657362,4.0,+39079231560
Area archeologica di Tharros,area o parco archeologico,Cabras,"SP 6, San Giovanni di Sinis",39.873435968,8.440882669,6.5,+390783370019
S'Omu de sa maja,"museo, galleria, raccolta",Seui,"Via della Sapienza, s.n.c.",39.839926141,9.323699622,5.0,+390782539002
Cripta di Santa Restituta,area o parco archeologico,Cagliari,"Via Sant'Efisio, 14",39.21894535,9.112870527,2.0,+393662562826
Carcere Spagnolo - Sa Bovida,"museo, galleria, raccolta",Aritzo,"Via G. Marconi, s.n.c.",39.956306057,9.196234301,2.0,+393898731853//+390784627200
Parco-Museo S'Abba Frisca,"museo, galleria, raccolta",Dorgali,SS 125 Località Vallata di Littu,40.307278363,9.629401772,8.5,+393337655405//+393382380089//+393391464112//+393356569072
Area di S'Ortali e Su Monti,area o parco archeologico,Tortolì,Località S'Ortali e Su Monti,39.913263435,9.667972502,3.0,+39078232704
Cripta e Chiesa di San Lussorio,monumento o complesso monumentale,Fordongianus,SS 388,39.989712888,8.79819782,2.5,+39078360157
Museo diocesano Arborense,"museo, galleria, raccolta",Oristano,"Piazza Duomo, 1",39.902720678,8.590039922,4.0,+393425887847
Nuraghe Armungia,area o parco archeologico,Armungia,"Piazza Municipio, s.n.c.",39.522375799,9.383929958,1.5,+390709589011
Museo Archeologico della Città,"museo, galleria, raccolta",Alghero,"Via Carlo Alberto, 72",40.557353096,8.314130211,5.0,+39079979054//+39079980729
Museo Laboratorio dell'Età Nuragica - LABENUR,"museo, galleria, raccolta",Arzachena,"SP 115 - Stazione Ferroviaria, km 207,94",41.081626483,9.372607576,5.0,+393408209749//+393337389973
Parco urbano di Cannas di Sotto,area o parco archeologico,Carbonia,"Corso Iglesias, s.n.c./ Via Fertilia, s.n.c.",39.163079295,8.532182936,5.0,+3907811867304//+393458886058
Sito archeologico nuragico Lu Brandali,area o parco archeologico,Santa Teresa Gallura,"SP 90 - Via Capotesta, s.n.c.",41.233539787,9.175377523,5.0,+393498347698//+393477412166//+393920547979
Torre di Longosardo,monumento o complesso monumentale,Santa Teresa Gallura,"Via Bechi, s.n.c.",41.24552309,9.192536992,3.0,+393498347698//+393477412166//+393920547979
Domus de janas di Montalè,area o parco archeologico,Sassari,"Via Medaglie d’Oro, s.n.c.",40.748256902,8.511389012,4.0,+390792008072
Palazzo Ducale,monumento o complesso monumentale,Sassari,"Piazza del Comune, 1",40.726604737,8.559391856,4.0,+390792008072
Museo multimediale Torre di San Vittorio,"museo, galleria, raccolta",Carloforte,"Viale Osservatorio Astronomico, s.n.c.",39.13715209,8.311867795,5.0,+3907818589200//+3907818589207//+393331816535
Museo Geo-Mineralogico Naturalistico,"museo, galleria, raccolta",La Maddalena,"Borgo di Stagnali, Isola di Caprera",41.198126481,9.453760768,2.5,+393385940560
MIF - Museo dell'imprenditoria femminile Donna Francesca Sanna Sulis,"museo, galleria, raccolta",Muravera,"Via Guglielmo Marconi, 99",39.419568842,9.57724035,1.5,+393939023141
Museo del Sughero,"museo, galleria, raccolta",Calangianus,"Via San Francesco, 3",40.922316239,9.191277074,3.0,+39079662034//+393463693859
Ecomuseo delle Acque di Barbagia,"museo, galleria, raccolta",Sadali,"Via Grazia Deledda, s.n.c. - Infopoint",39.814577405,9.272619608,10.0,+393206253278
Museo Storico della Cava di Cala Francese,"museo, galleria, raccolta",La Maddalena,"Cala Francese, Isola di La Maddalena",41.220710522,9.378757671,5.0,+393385940560
Casa Devilla,"museo, galleria, raccolta",Aritzo,"Via Caserma, 1",39.957527153,9.196759126,2.0,+393898731853//+390784627200
Museo Mura,"museo, galleria, raccolta",Aritzo,"Pratz'e Iscola, 11",39.955466412,9.197740031,2.0,+393898731853//+390784627200
Giardino Sonoro - P.S. Museum,"museo, galleria, raccolta",San Sperate,"Via oriana Fallaci, s.n.c.",39.357057661,8.998463167,5.0,+393245875094
EMA - Ecomuseo del Mare e dell’Acqua,monumento o complesso monumentale,Sassari,"Viale Adua, s.n.c.",40.718685414,8.578112772,8.0,+393519359980
Archivio Digitale e installazione museale Rixe per la cultura Tabarchina,"museo, galleria, raccolta",Calasetta,"Via Umberto I, 61",39.109279973,8.371082433,3.0,+393473626183//+393288836251//+390781840717
Museo Civico Pedru Serra,"museo, galleria, raccolta",Sagama,"Via Regina Elena, 27",40.261402113,8.578036968,3.0,+393288789521
Centro di Documentazione e Studio sulla Sartiglia,"museo, galleria, raccolta",Oristano,"Via Eleonora, 15",39.903396999,8.591380843,2.0,+390783303159//+390783302481
