Regione,Denominazione,Categoria,Comune,Indirizzo,Latitudine,Longitudine,Prezzo,Contatti
Sardegna,Museo del Giocattolo Tradizionale della Sardegna,"museo, galleria e/o raccolta",Ales,"Via San Simeone, 9",39.774994428,8.831142701,3.0,+39 0783 998072// +39 3406742512
Sardegna,Museo Diocesano d'Arte Sacra,"museo, galleria e/o raccolta",Ales,"Piazza Cattedrale, 1",39.768700749,8.816201724,3.0,+39 0783 91974// +39 3287824283
Sardegna,Museo Sella e Mosca,"museo, galleria e/o raccolta",Alghero,"SP 42, km 8, località I Piani",40.642062165,8.332584646,0.0,+39 079 997700
Sardegna,M.U.B.A. Museo della Bonifica di Arborea,"museo, galleria e/o raccolta",Arborea,"Corso Italia, 24",39.773627097,8.580103276,3.0,+39 0783 802005
Sardegna,Museo del Coltello Sardo,"museo, galleria e/o raccolta",Arbus,"Via Roma, 15",39.52664028,8.598215937,0.0,+39 3490537765// +39 070 9759220
Sardegna,Ecomuseo della Montagna Sarda o del Gennargentu,"museo, galleria e/o raccolta",Aritzo,"Parco Comunale Pastissu, 3",39.950227438,9.192275755,3.0,+39 3898731853// +39 0784 627200
Sardegna,Museo d'Arte Moderna e Contemporanea Antonio Ortiz Echague,"museo, galleria e/o raccolta",Atzara,"Piazza Antonio Ortiz Echague, 1",39.991563268,9.075344563,3.0,+39 0784 65508// +39 3477983242
Sardegna,Casa Museo,"museo, galleria e/o raccolta",Baressa,"Via Marconi, 28",39.714066632,8.873745506,0.0,+39 0783 930049// +39 0783 930118 FAX
Sardegna,Collezione Soddu Tanda,"museo, galleria e/o raccolta",Benetutti,"Via Guglielmo Marconi, 24",40.456597498,9.170775748,0.0,+39 079 7979000// +39 079 7979010
Sardegna,Museo del Vino - Enoteca Regionale della Sardegna,"museo, galleria e/o raccolta",Berchidda,"Via Gian Giorgio Casu, 5",40.788327955,9.170512742,3.0,+39 079 705268
Sardegna,Museo S'Omo e Sa Majarza,"museo, galleria e/o raccolta",Bidonì,"Via Monte, 9",40.11317212,8.937124793,3.0,+39 0783 69044// +39 3483943842
Sardegna,Museo della Civiltà Pastorale e Contadina,"museo, galleria e/o raccolta",Bitti,"Via Goffredo Mameli, 52",40.477485471,9.381761332,2.5,+39 0784 414314// +39 3333211346
Sardegna,Museo Multimediale del canto a tenore,"museo, galleria e/o raccolta",Bitti,"Via Goffredo Mameli, 52",40.477603091,9.381608638,2.5,+39 0784 414314// +39 3333211346
Sardegna,Museo del Pane Rituale,"museo, galleria e/o raccolta",Borore,"Via Baccarini, s.n.c.",40.214065408,8.802791561,0.0,+39 0785 790031// +39 0785 790025
Sardegna,Museo Mineralogico,"museo, galleria e/o raccolta",Bortigiadas,"Viale Trieste, 30",40.891815348,9.044615048,0.0,+39 079 627014
Sardegna,Museo della Cattedrale di San Pietro di Sorres,"museo, galleria e/o raccolta",Borutta,"San Pietro di Sorres, s.n.c.",40.520138601,8.749316593,3.0,+39 3393312355// +39 079 824001// +39 079 824025
Sardegna,Basilica di San Pietro Extra Muros,monumento o complesso monumentale,Bosa,"Via San Pietro, s.n.c.",40.289260887,8.51990324,2.0,+39 0785 373286// +39 3335445675// +39 3403955048// +39 3298505079
Sardegna,Collezione Etnografica Stara,"museo, galleria e/o raccolta",Bosa,"Viale della Repubblica, 10",40.296301235,8.494474469,0.0,+39 0785 373459
Sardegna,Museo d'Arte Contemporanea,"museo, galleria e/o raccolta",Buddusò,"Corso Antonio Segni, s.n.c.",40.570991034,9.258464706,2.5,+39 079 5610041// +39 3925234333// +39 079 715519
Sardegna,Museo del Minatore,"museo, galleria e/o raccolta",Buggerru,"Via Marina, s.n.c.",39.40030582,8.400630419,2.5,+39 3341142910
Sardegna,Castello di Burgos,monumento o complesso monumentale,Burgos,"Vico Castello, s.n.c.",40.388520713,8.998935249,3.0,+39 3479018930
Sardegna,Museo dei Castelli,"museo, galleria e/o raccolta",Burgos,"Vico Castello, s.n.c.",40.38922335,8.996072213,3.0,+39 3479018930
Sardegna,Anfiteatro Romano,monumento o complesso monumentale,Cagliari,"Via Sant'Ignazio da Laconi, 27",39.224022454,9.113394178,3.0,+39 3662562826// +39 070 6670168
Sardegna,Castello di San Michele,monumento o complesso monumentale,Cagliari,"Via Sirai, s.n.c.",39.244764832,9.109782936,3.0,+39 070 15240479// +39 3466673657
Sardegna,Collezione Sarda Luigi Piloni,"museo, galleria e/o raccolta",Cagliari,"Via Università, 32",39.217262604,9.115155649,0.0,+39 070 6752112
Sardegna,Galleria Rifugio Don Bosco,monumento o complesso monumentale,Cagliari,Via Don Bosco s.n.c.,39.222557484,9.109406822,0.0,+39 070 6776470// +39 070 6776471// +39 070 6778173// +39 070 6777397
Sardegna,Museo Herbarium e Museo Etno-botanico,"museo, galleria e/o raccolta",Cagliari,"Viale Sant'Ignazio da Laconi, 11",39.222961607,9.110855414,0.0,+39 070 6753519
Sardegna,Museo d'Arte Siamese Stefano Cardu,"museo, galleria e/o raccolta",Cagliari,"Piazza Arsenale, 1",39.222757067,9.117319475,3.0,+39 070 6776543
Sardegna,Museo dell'Arciconfraternita dei Genovesi,"museo, galleria e/o raccolta",Cagliari,"Via F. Gemelli, 2",39.216380702,9.131151129,0.0,+39 070 497855
Sardegna,Museo delle industrie litiche preistoriche dell'Università di Cagliari,"museo, galleria e/o raccolta",Cagliari,"Piazza Arsenale, 1",39.222157715,9.117445773,0.0,+39 070 6757602// +39 070 6757626
Sardegna,Museo di Mineralogia Leonardo De Prunner e Museo di Geologia e Paleontologia Domenico Lovisato,"museo, galleria e/o raccolta",Cagliari,"Via Trentino, 51",39.229510655,9.112765758,0.0,+39 070 6756618// +39 070 282236 FAX
Sardegna,Museo di Zoologia - Dipartimento di Biologia Animale ed Ecologia,"museo, galleria e/o raccolta",Cagliari,"Via Ingegnere Tommaso Fiorelli, 1",39.202358155,9.14033223,0.0,+39 070 6758000
Sardegna,Museo Etnografico Regionale Collezione Luigi Cocco,"museo, galleria e/o raccolta",Cagliari,"Piazza Arsenale, 1",39.222910328,9.1172385,0.0,+39 3469724935// +39 0784 242900
Sardegna,Museo Ferroviario Sardo,"museo, galleria e/o raccolta",Cagliari,"Via Sassari, 24",39.215376795,9.108387849,0.0,+39 070 6794715// +39 3347165216// +39 3889551894
Sardegna,Museo Fra Nicola da Gesturi,"museo, galleria e/o raccolta",Cagliari,"Via Sant'Ignazio da Laconi, 94",39.224077613,9.112258945,0.0,+39 070 657370// +39 3493295164
Sardegna,Raccolta delle Cere Anatomiche di Clemente Susini,"museo, galleria e/o raccolta",Cagliari,"Piazza Arsenale, s.n.c.",39.222009352,9.117132752,1.5,+39 070 6754027// +39 070 6757624// +39 070 6754083
Sardegna,Villa di Tigellio,area o parco archeologico,Cagliari,"Via Carbonazzi, 7",39.22059783,9.108515754,2.0,+39 3662562826
Sardegna,Museo dell'intreccio Mediterraneo,"museo, galleria e/o raccolta",Castelsardo,"Via Guglielmo Marconi, s.n.c.",40.915678871,8.712581305,3.0,+39 079 6014769// +39 3471118547
Sardegna,Museo del Territorio,monumento o complesso monumentale,Castiadas,"Via Centrale, s.n.c.",39.235869486,9.498904327,0.0,+39 3485182463
Sardegna,Basilica della Santissima Trinità di Saccargia,monumento o complesso monumentale,Codrongianos,SS 597,40.671185823,8.689498643,3.0,+39 3470007882
Sardegna,Museo Cedoc e Pinacoteca Comunale,"museo, galleria e/o raccolta",Codrongianos,"Via San Paolo, s.n.c.",40.658541602,8.677751706,0.0,+39 079 434256
Sardegna,Museo dell'Olio dr. Giorgio Zampa,"museo, galleria e/o raccolta",Cuglieri,"Corso Umberto I, 68",40.191090542,8.568668139,3.0,+39 3405291175
Sardegna,Casa Museo,"museo, galleria e/o raccolta",Domus de Maria,"Piazza Vittorio Emauele, s.n.c.",38.944377834,8.865178631,1.6,+39 070 7331424
Sardegna,Museo della civiltà contadina della piana del Cixerri,"museo, galleria e/o raccolta",Domusnovas,"Via G. Garibaldi, 57",39.323544002,8.650537455,0.0,+39 3334749598
Sardegna,Museo Archeologico Dorgali,"museo, galleria e/o raccolta",Dorgali,"Via Lamarmora, s.n.c",40.291944275,9.588417192,3.0,+39 3484780104
Sardegna,Museo Salvatore Fancello,"museo, galleria e/o raccolta",Dorgali,"Corso Umberto, 37",40.28921292,9.588502369,0.0,+39 0784 927242// +39 0784 927250
Sardegna,Casa Museo,"museo, galleria e/o raccolta",Elini,"Via Lamarmora, 33",39.898780782,9.531000056,0.0,+39 0782 33069// +39 0782 33062
Sardegna,Museo Etnografico Antico Mulino ad acqua Licheri,"museo, galleria e/o raccolta",Fluminimaggiore,"Piazza Antonio Gramsci, s.n.c.",39.435645269,8.497749501,3.0,+39 3478174989// +39 0781 580990 FAX
Sardegna,Miniera di Funtana Raminosa,"museo, galleria e/o raccolta",Gadoni,SP 8,39.877414961,9.17226301,0.0,+39  3450789622// +39 0784 627001// +39 0784 625933 FAX
Sardegna,Museo Casa Porcu Satta,"museo, galleria e/o raccolta",Gavoi,"Via Roma, 187",40.158704827,9.194235241,2.0,+39 0784 53633
Sardegna,Museo della Giara,"museo, galleria e/o raccolta",Gesturi,"Via Camillo Benso Conte di Cavour, 4",39.732849335,9.019587251,2.0,+39 070 9369052
Sardegna,Museo Turcus e Morus,"museo, galleria e/o raccolta",Gonnostramatza,"Piazza San Michele Arcangelo, 5",39.680725683,8.833471808,3.0,+39 0783 92587// +39 3476008108// +39 3477299298
Sardegna,Casa Murgia,"museo, galleria e/o raccolta",Guspini,"Via Petrarca, 2",39.539246177,8.624635363,3.0,+39 070 973173// +39 3384592082// +39 3891643692
Sardegna,Museo Monte Tempo,"museo, galleria e/o raccolta",Guspini,"Via Ferracciu, 1",39.540392004,8.625106412,3.0,+39 070 973173// +39 3384592082// +39 3891643692
Sardegna,Museo di Mineralogia,"museo, galleria e/o raccolta",Iglesias,"Via Roma, 49",39.311332312,8.53195059,0.0,+39 0781 274507
Sardegna,Antiquarium Comunale di Irgoli,"museo, galleria e/o raccolta",Irgoli,"Via San Michele, 14",40.409521237,9.632715883,2.0,+39 0784 979074// +39 3806390589
Sardegna,Complesso Nuragico di Janna 'e Pruna e Fonte Sacra di Su Notante,area o parco archeologico,Irgoli,Monte 'E Senes,40.485488131,9.648200379,2.0,+39 0784 979074// +39 3806390589
Sardegna,MARATE - Museo Per L'Arte del Rame e del Tessuto,"museo, galleria e/o raccolta",Isili,"Piazza San Giuseppe Calasanzio, 8",39.74206535,9.106801455,2.5,+39 0782 802641// +39 3804553856// +39 0782 804163 FAX
Sardegna,Nuraghe Is Paras,area o parco archeologico,Isili,"Via Grazia Deledda, s.n.c.",39.748621779,9.107473956,3.0,+39 0782 802641// +39 0782 804163 FAX// +39 3804553856// +39 3391121384// +39 3482231271
Sardegna,Museo Civico Archeologico Etnografico,"museo, galleria e/o raccolta",Ittireddu,"Via San Giacomo, 3",40.544071881,8.902356552,3.0,+39 079 767623// +39 079 767625 FAX
Sardegna,Museo Diocesano La Maddalena,"museo, galleria e/o raccolta",La Maddalena,"Via Baron Manno, s.n.c.",41.213344805,9.405483162,3.0,+39 3491534391
Sardegna,Museo Parrocchiale Sant'Ignazio,"museo, galleria e/o raccolta",Laconi,"Via Sant'Ambrogio, 11",39.855185871,9.053282572,0.0,+39 3462130214// +39 0782 869027
Sardegna,Museo Diocesano di Ogliastra,"museo, galleria e/o raccolta",Lanusei,"Via Roma, 106",39.876067258,9.542682473,0.0,+39 0782 42158// +39 0782 482212 FAX// +39 3294153002// +39 3939895208
Sardegna,Sa domu de s'olia,"museo, galleria e/o raccolta",Loceri,"Vico III Roma, 9",39.857435684,9.583417445,0.0,+39 3287137001// +39 0782 77051
Sardegna,Palazzo di Baldu,monumento o complesso monumentale,Luogosanto,"SP 14, Luogosanto, Arzachena",41.070162188,9.225597386,0.0,+39 079 65790
Sardegna,Casa Museo Is Lollas de Is Aiaiusu,"museo, galleria e/o raccolta",Mandas,"Via S. Antonio, 15",39.653692322,9.126772797,2.0,+39 3491973677// +39 070 987801// +39 3489335805
Sardegna,Museo di Arte Sacra Peregrinatio Fidei,"museo, galleria e/o raccolta",Mandas,"Piazza Carlo Alberto, s.n.c.",39.651179325,9.12674654,2.0,+39 3493607889// +39 070 987801// +39 3489335805
Sardegna,Area archeologica Nuraghe Nolza,area o parco archeologico,Meana Sardo,Località Nolza,39.917013888,9.073189374,3.0,+39 0784 64183// +39 3311092120
Sardegna,Museo del Gioiello e Costume Sardo,"museo, galleria e/o raccolta",Milis,"Piazza Martiri d'Italia, s.n.c.",40.048687405,8.636753359,0.0,+39 3336516245// +39 0783 51666
Sardegna,Area archeologica Cuccurada,area o parco archeologico,Mogoro,SP 44,39.664461045,8.747882739,2.0,+39 3281156539
Sardegna,Museo di Fisica di Sardegna,"museo, galleria e/o raccolta",Monserrato,"Cittadella Universitaria di Monserrato, SS 554",39.271130893,9.122326556,0.0,+39 070 6754863// +39 070 510171 FAX
Sardegna,Museo Sardo di Antropologia e Etnografia,"museo, galleria e/o raccolta",Monserrato,"Cittadella Universitaria di Monserrato, SS 554",39.270283111,9.123055389,0.0,+39 070 6754291// +39 070 6754130// +39 070 6756607
Sardegna,Museo Faunistico dell'Oasi di Assai,monumento naturale,Neoneli,"Località Su Mortoggiu, s.n.c.",40.08425034,9.012231013,0.0,+39 3204331090// +39 3204331077// +39 0783 3192000
Sardegna,Museo dell'Immagine e del Design Interattivo,"museo, galleria e/o raccolta",Norbello,"Vico San Giovanni, 10",40.138607063,8.833959265,3.0,+39 0785 519927// +39 3473846907
Sardegna,Museo Avifaunistico,"museo, galleria e/o raccolta",Nughedu Santa Vittoria,"7 Km Dalla SP 15, località Alamoju",40.102616766,9.00216773,0.0,+39 3204331090// +39 3204331077// +39 0783 3192000
Sardegna,Museo Deleddiano - Casa Natale di Grazia Deledda,"museo, galleria e/o raccolta",Nuoro,"Via Grazia Deledda, 42",40.323706239,9.336954694,3.0,+39 0784 36101
Sardegna,Casa Museo Carmelo Floris,"museo, galleria e/o raccolta",Olzai,"Via S. Anastasio, 30",40.18152812,9.149970445,2.5,+39 3664625022// +39 3486094727
Sardegna,Collezione Delitala,"museo, galleria e/o raccolta",Orani,"Piazza Italia, 7",40.250076972,9.177493661,0.0,+39 0784 74123// +39 0784 74462
Sardegna,Museo Omu Axiu,"museo, galleria e/o raccolta",Orroli,"Via Roma, 46",39.69218923,9.253340754,3.0,+39 0782 845023
Sardegna,Museo del Grano,"museo, galleria e/o raccolta",Ortacesus,"Via J.F. Kennedy, 25",39.539237929,9.083652694,2.0,+39 070 9819027
Sardegna,Su Tempiesu,area o parco archeologico,Orune,Località Sa Costa e Sa Binza,40.41092889,9.412900728,3.0,+39 3287565148
Sardegna,Parco Archeologico e Naturalistico del Taccu di Osini,area o parco archeologico,Osini,Altopiano Del Taccu,39.826070182,9.486141549,3.0,+39 3297643343// +39 3204960927// +39 3287623515
Sardegna,Grotta di San Michele,area o parco archeologico,Ozieri,"Via San Michele, s.n.c.",40.580887106,9.004165423,3.0,+39 079 787638
Sardegna,Museo del Molino Galleu,"museo, galleria e/o raccolta",Ozieri,"Via Sos Ortos, s.n.c.",40.588986002,9.000538155,0.0,+39 079 787188// +39 079 788093 FAX
Sardegna,Museo Diocesano d'Arte Sacra,"museo, galleria e/o raccolta",Ozieri,"Via Umberto I, 37",40.584508747,9.002405129,3.0,+39 079 786093// +39 34715460083// +39 079 787638
Sardegna,Pinacoteca Giuseppe Altana,"museo, galleria e/o raccolta",Ozieri,"Via Alcide De Gasperi, 2",40.588031068,9.002038787,3.0,+39 079 787638
Sardegna,Sant'Antioco di Bisarcio,monumento o complesso monumentale,Ozieri,SS 597,40.644717636,8.892771753,3.0,+39 079 787638// +39 079 7851052
Sardegna,Museo Civico Archeologico,"museo, galleria e/o raccolta",Padria,"Via Nazionale, 3",40.397541888,8.630523572,1.0,+39 079 807018// +39 340 2836246// +39 347 9384533
Sardegna,Museo Etnografico,"museo, galleria e/o raccolta",Palau,"Via Nazionale, s.n.c.",41.178715705,9.380041979,2.5,+39 3470913032
Sardegna,Museo della Donna,"museo, galleria e/o raccolta",Pauli Arbarei,"Via Roma, 12/ Via Mannu, 3",39.661770922,8.920809429,2.0,+39 070 939039
Sardegna,Museo Etnografico Sa Tellaia,"museo, galleria e/o raccolta",Pauli Arbarei,"Via Cavour, 19",39.659871549,8.9234345,0.0,+39 070 939531
Sardegna,Museo Archeologico e Paleobotanico,"museo, galleria e/o raccolta",Perfugas,"Via Sauro, s.n.c.",40.834762385,8.887913619,0.0,+39 079 564241// +39 3497777103
Sardegna,Quadreria Spano,"museo, galleria e/o raccolta",Ploaghe,"Piazza San Pietro, s.n.c.",40.66641212,8.749052846,2.5,+39 3493672110
Sardegna,Castello della Fava,monumento o complesso monumentale,Posada,"Via Eleonora d'Arborea, s.n.c.",40.637988567,9.723759427,2.5,+39 3474801421
Sardegna,Casa Museo Edvige Carboni,"museo, galleria e/o raccolta",Pozzomaggiore,"Via Carboni, 16A",40.39728553,8.658463493,0.0,+39 079 801132// +39 3466347142
Sardegna,Museo del Cavallo di Pozzomaggiore,"museo, galleria e/o raccolta",Pozzomaggiore,"Piazza Convento, 39",40.396742287,8.660599079,2.0,+39 3408070619// +39 3283831764// +39 079 801969
Sardegna,Casa Museo Sa Domu De su Ferreri,"museo, galleria e/o raccolta",Samatzai,"Via Eleonora d'Arborea, 5",39.483886794,9.032916574,0.0,+39 070 910023
Sardegna,Museo Unico Regionale dell'Arte Tessile Sarda,"museo, galleria e/o raccolta",Samugheo,"Via Bologna, s.n.c.",39.955086653,8.946882901,2.5,+39 0783 631052
Sardegna,Museo e centro documentazione Due Fonderie,"museo, galleria e/o raccolta",San Gavino Monreale,"Via Montevecchio, 2",39.546816536,8.786386578,0.0,+39 070 93749205
Sardegna,Museo Etnografico Dona Maxima,"museo, galleria e/o raccolta",San Gavino Monreale,"Viale Amsicora, 21",39.550932511,8.793640275,0.0,+39 3496096090// +39 3497743861// +39 3483125817
Sardegna,Museo della Civiltà del Mare,"museo, galleria e/o raccolta",San Teodoro,"Via Niuloni, 1",40.779648608,9.674205849,2.0,+39 0784 866180// +39 3477256278
Sardegna,Museo del Convento dei Cappuccini,"museo, galleria e/o raccolta",Sanluri,"Via San Rocco, 6",39.56592009,8.897787382,3.0,+39 070 3293920
Sardegna,Catacombe di Sant'Antioco,area o parco archeologico,Sant'Antioco,"Piazza Parrocchia, 22",39.069542438,8.45089123,0.0,+39 0781 921887// +39 3897962114
Sardegna,Forte Sabaudo Forte Su Pisu,monumento o complesso monumentale,Sant'Antioco,"Via Castello, s.n.c.",39.070659707,8.450871014,2.5,+39 0781 800596// +39 3897962114// +39 0781 800596 FAX
Sardegna,Museo del Bisso di Chiara Vigo,"museo, galleria e/o raccolta",Sant'Antioco,"Viale Regina Margherita, 168",39.069942855,8.451723373,0.0,+39 3484336521
Sardegna,Museo Etnografico Su Magasinu e Su Binu,"museo, galleria e/o raccolta",Sant'Antioco,"Via Necropoli, 24d",39.07108281,8.449827376,3.0,+39 3890505107// +39 0781 800596// +39 3897962114
Sardegna,Collezione Mario Sironi,"museo, galleria e/o raccolta",Sassari,"Piazzetta Banco di Sardegna, 1",40.726024006,8.565100186,0.0,+39 079 227076
Sardegna,Museo Diocesano di Sassari,"museo, galleria e/o raccolta",Sassari,"Piazza del Duomo, s.n.c.",40.72671167,8.558778392,2.0,+39 079 232067// +39 3472174128
Sardegna,Museo Etnografico F. Bande,"museo, galleria e/o raccolta",Sassari,"Via Muroni, 44",40.723890533,8.556044014,0.0,+39 079 236572
Sardegna,MUNISS Museo Scientifico dell' Università di SS,"museo, galleria e/o raccolta",Sassari,"Piazza Università, 21",40.724905377,8.559932966,0.0,+39 079 228619
Sardegna,Museo Storico della Brigata SS,"museo, galleria e/o raccolta",Sassari,"Piazza Castello, 9",40.726206466,8.563322803,0.0,+39 079 2085308
Sardegna,Museo Naturalistico Parco Degli Uccelli,"museo, galleria e/o raccolta",Scano di Montiferro,"Località Codiles, SP 21",40.230922592,8.584001868,0.0,+39 0785 32582// +39 3404970705
Sardegna,Museo Parrocchiale,"museo, galleria e/o raccolta",Selegas,"Via Chiesa, 8",39.568874936,9.103544044,0.0,+39 3407659797// +39 070 985331
Sardegna,Museo Sa Domu Nosta,"museo, galleria e/o raccolta",Senorbì,"Via Scaledda, 1",39.533760629,9.131838072,3.0,+39 070 9809071
Sardegna,Necropoli di Monte Luna,area o parco archeologico,Senorbì,Località monte Luna,39.510597404,9.144601177,0.0,+39 070 9809071
Sardegna,Arca del Tempo,"museo, galleria e/o raccolta",Settimo San Pietro,"Via Alagon, 36",39.28728074,9.17659711,0.0,+39 070 76911
Sardegna,Museo Ornitologico della Sardegna,"museo, galleria e/o raccolta",Siddi,"Piazza Leonardo da Vinci, s.n.c.",39.671812206,8.888468968,2.0,+39 070 939888// +39 3475116787
Sardegna,Parco Naturalistico Archeologico Sa Fogaia,area o parco archeologico,Siddi,Giara di Siddi,39.662977791,8.878641843,2.0,+39 070 939888// +39 3475116787
Sardegna,Tomba dei Giganti Sa Domu De S'Orku,area o parco archeologico,Siddi,Località Pranu Siddi,39.686143836,8.871228155,0.0,+39 070 939888// +39 3475116787
Sardegna,Museo Maria Carta,"museo, galleria e/o raccolta",Siligo,"Via Aldo Moro, 1",40.57717095,8.724682024,0.0,+39 079 837009
Sardegna,Museo Civico Archeologico e Pinacoteca,"museo, galleria e/o raccolta",Sinnai,"Via P. Colletta, 20",39.302004158,9.202034006,2.0,+39 3406671868
Sardegna,Museo del Cervo Sardo,"museo, galleria e/o raccolta",Sinnai,SS 125,39.305237073,9.394467698,0.0,+39 070 831038
Sardegna,MUT - Museo della Tonnara di Stintino,"museo, galleria e/o raccolta",Stintino,"Via Lepanto, 36",40.935617785,8.227624989,0.0,+39 3459718686// +39 079 520081
Sardegna,Necropoli Chirisconis,area o parco archeologico,Suni,SS 292 bis,40.331145705,8.593086605,2.5,+39 3288789521
Sardegna,Nuraghe Nuraddeo,area o parco archeologico,Suni,SS 292 bis,40.324299183,8.57997115,2.5,+39 3288789521
Sardegna,Nuraghe Seneghe,area o parco archeologico,Suni,"Via Bosa, s.n.c.",40.279216862,8.539274442,2.5,+39 3288789521
Sardegna,Raccolta Ornitologica F. Stazza,"museo, galleria e/o raccolta",Tempio Pausania,"Via Tola, 1",40.902480177,9.102727023,0.0,+39 079 630996// +39 079 6390062
Sardegna,Museo Civico d'Arte Moderna Albino Manca,"museo, galleria e/o raccolta",Tertenia,"Via Andrea Doria, 12",39.699049651,9.576437167,0.0,+39 0782 908015
Sardegna,Area di S'Urbale,area o parco archeologico,Teti,"Via Roma, 7",40.085631954,9.109598278,2.5,+39 0784 68120// +39 0784 9364481
Sardegna,Museo Archeologico Comprensoriale,"museo, galleria e/o raccolta",Teti,"Via Roma, 7",40.097035648,9.121007812,2.5,+39 0784 68120
Sardegna,Santuario Nuragico di Abini,area o parco archeologico,Teti,"Via Roma, 7",40.145460165,9.092964759,2.5,+39 0784 68120
Sardegna,Museo Tesori della Parrocchia Vergine del Carmine,"museo, galleria e/o raccolta",Teulada,"Piazza Parrocchia, 2, 3",38.968909169,8.774311126,0.0,+39 070 9270067
Sardegna,Collezione Permanente Aligi Sassu,"museo, galleria e/o raccolta",Thiesi,"Via Garau, 53",40.521899026,8.715924769,0.0,+39 079 886012
Sardegna,Complesso Monumentale Comprendente La Cattedrale di S. Maria di Monserrato e Borgo Medievale,monumento o complesso monumentale,Tratalias,"Piazza Chiesa, s.n.c.",39.097975559,8.572070511,2.5,+39 0781 688046// +39 0781 697023
Sardegna,Museo d'arte contemporanea a cielo aperto,"museo, galleria e/o raccolta",Ulassai,"Località Ex Stazione Ferroviaria, SP 11",39.72398546,9.495225533,0.0,+39 0782 787055
Sardegna,Casa Museo Begliutti,"museo, galleria e/o raccolta",Ussassai,"Via Della Sapienza, 17",39.811788122,9.393769972,0.0,+39 0782 55710// +39 0782 55895
Sardegna,Museo Archeologico di Viddalba,"museo, galleria e/o raccolta",Viddalba,"Via Giovanni Maria Angioy, 5",40.916394607,8.894386826,3.0,+39 3273834604
Sardegna,Farmamuseo Sa Potecaria,"museo, galleria e/o raccolta",Villacidro,"Via Su Ponti De Su Vicariu, 12",39.456480478,8.733583611,0.0,+39 070 9310011// +39 3276597844
Sardegna,Museo Civico Archeologico Villa Leni,"museo, galleria e/o raccolta",Villacidro,"Piazza Zampillo, 1",39.456778972,8.732123755,2.0,+39 070 93442215
Sardegna,Museo di Santa Barbara,"museo, galleria e/o raccolta",Villacidro,"Piazza Santa Barbara, 2",39.456847022,8.732326916,0.0,+39 070 932018
Sardegna,Area archeologica Troculu,area o parco archeologico,Villagrande Strisaili,"SS 389 var. Buddusò Correboi, località Genna Troculu",39.989221335,9.408174082,3.0,+39 0782 32704// +39 3939020917// +39 0782 319163 FAX
Sardegna,Area di Sa Carcaredda,area o parco archeologico,Villagrande Strisaili,SS 389 var. Buddusò Correboi,39.99218819,9.427436893,3.0,+39 0782 32704// +39 3939020917// +39 0782 319163 FAX
Sardegna,S'Arcu 'e Is Forros,area o parco archeologico,Villagrande Strisaili,"SS 389 var. Buddusò Correboi, località Arcu e Is Forros",40.002023634,9.400515256,3.0,+39 0782 32704// +39 3939020917// +39 0782 319163 FAX
Sardegna,Area di Pottu Codinu,area o parco archeologico,Villanova Monteleone,SS 292,40.487202751,8.519114182,2.0,+39 3381586752// +39 3381809055// +39 3668412916// +39 079 960607
Sardegna,Museo Etnografico Sa Domo Manna,"museo, galleria e/o raccolta",Villanova Monteleone,"Via Papa Giovanni XXIII, 8",40.503002947,8.471421837,2.0,+39 079 960268
Sardegna,Villaggio Nuragico Nuraghe Appiu,area o parco archeologico,Villanova Monteleone,"Strada consortile Monte Cuccu, Baddu 'e Pessighes",40.445358988,8.420052163,2.5,+39 3381586752// +39 3381809055// +39 3668412916
Sardegna,Nuraghe Adoni,area o parco archeologico,Villanova Tulo,SP 52,39.78580091,9.173307667,0.0,+39 3402519683// +39 0782 813023// +39 0782 813030
Sardegna,Area archeologica Su Mulinu,area o parco archeologico,Villanovafranca,Strada Comunale Cuccuru Meu,39.634364269,8.994152835,3.0,+39 070 9367458
Sardegna,Civico Museo Archeologico Su Mulinu,"museo, galleria e/o raccolta",Villanovafranca,"Piazza Risorgimento, 6",39.645751062,9.001293255,3.0,+39 070 9367458
Sardegna,Museo Archeologico-Industriale dell'Attività Mineraria su Suergiu,"museo, galleria e/o raccolta",Villasalto,Località Su Suergiu,39.496135574,9.377680056,0.0,+39 070 5435109// +39 3201128859
Sardegna,Fortezza Vecchia,monumento o complesso monumentale,Villasimius,Località Torre Vecchia,39.116166082,9.503739414,1.0,+39 070 7930290// +39 070 7930232
Sardegna,Museo Archeologico di Villasimius,"museo, galleria e/o raccolta",Villasimius,"Via Aventino Frau, 5",39.14374111,9.518478568,3.0,+39 070 7930290
Sardegna,Museo del Fiore Sardo,"museo, galleria e/o raccolta",Gavoi,"Via Eleonora d'Arborea, s.n.c.",40.159497647,9.194237488,0.0,+39 0784 53633// +39 3291382968
Sardegna,Museo la Casa del Pane di Pompu,"museo, galleria e/o raccolta",Pompu,"Via Regine Elena, 19",39.723872332,8.796539215,0.0,+39 0783 990035// +39 0783 999111
Sardegna,Museo Aquilegia,"museo, galleria e/o raccolta",Masullas,"Via San Francesco, 4,6",39.701419401,8.780565483,0.0,+39 3333544271// +39 3201184545
Sardegna,Archivio Storico Comunale di Sassari,"museo, galleria e/o raccolta",Sassari,"Via Insinuazione, 31, 33",40.726980125,8.560385579,0.0,+39 079 279590
Sardegna,Museo del Porto,"museo, galleria e/o raccolta",Porto Torres,"Via Antonietta Bassu, 1",40.837868921,8.399880102,0.0,+39 3470082446// +39 3472751234
Sardegna,"Casa Todde, Museo del Mare Giorgio Capai","museo, galleria e/o raccolta",Villasimius,"Via Roma, 60",39.144279225,9.516328087,0.0,+39 070 792076
Sardegna,Ipogeo di San Salvatore,monumento o complesso monumentale,Cabras,"Piazza San Salvatore, s.n.c.",39.92081637,8.451847471,0.0,+39 0783 397232// +39 3343113096
Sardegna,Archivio di Stato di Cagliari,"museo, galleria e/o raccolta",Cagliari,"Via Gallura, 2",39.21350032,9.119886999,0.0,+39 070 669450// +39 070 665772// +39 070 653401 FAX
Sardegna,Basilica paleocristiana San Saturno/ San Saturnino,area o parco archeologico,Cagliari,"Piazza San Cosimo, s.n.c.",39.214014631,9.123376844,0.0,+39 070 662496
Sardegna,Biblioteca Universitaria di Cagliari,"museo, galleria e/o raccolta",Cagliari,"Via Università, 32",39.217091408,9.115143895,0.0,+39 070 661021// +39 070 652672 FAX
Sardegna,Museo del Santuario di Nostra Signora di Bonaria,"museo, galleria e/o raccolta",Cagliari,"Piazza Bonaria, 2",39.208646766,9.1253515,0.0,+39 070 301747// +39 070 303182 FAX
Sardegna,MAR - Miniera Argentiera,"museo, galleria e/o raccolta",Sassari,"Via dei Minatori, s.n.c.",40.738584702,8.147808852,0.0,+39 079 279970// +39 079 2008072
Sardegna,Casteddu Ezzu,monumento o complesso monumentale,Cuglieri,SP 19,40.176540919,8.58103401,0.0,+39 0785 368200// +39 0785 368214 FAX
Sardegna,Museo Scuola di Miniera di Monteponi,"museo, galleria e/o raccolta",Iglesias,"Via Monteponi, s.n.c., località Monteponi",39.301043528,8.512541102,0.0,+39 0781 876064// +39 3497334868// +39 3204752774
Sardegna,Archivio Mario Cervo,"museo, galleria e/o raccolta",Olbia,"Via Grazia Deledda, 26",40.9148379,9.498042516,0.0,+39 3482418450// +39 3939611126
Sardegna,META - Museo etnografico di Abbasanta,"museo, galleria e/o raccolta",Abbasanta,"Via S. Caterina, 25",40.124741737,8.821898921,2.5,+39 0785 52302// +39 3319128790
Sardegna,Spazio Ilisso,"museo, galleria e/o raccolta",Nuoro,"Via Brofferio, 23",40.322057048,9.334027469,0.0,+39 0784 31551// +39 0784 33033
Sardegna,Museo del costume e della tradizione,"museo, galleria e/o raccolta",Iglesias,"Via XXVII Marzo, s.n.c.",39.313527411,8.532202604,0.0,+39 0781 274507
Sardegna,Museo Le vie dell'acqua - Gualchiera,monumento o complesso monumentale,Tiana,"SS 128, località Gusabu",40.057810433,9.153020888,0.0,+39 3662553122// +39 0784 69040
Sardegna,Archivio di Stato di Nuoro,"museo, galleria e/o raccolta",Nuoro,"Via Antonio Mereu, 49",40.31822396,9.335485681,0.0,+39 0784 33476// +39 0784 33469 FAX
Sardegna,Castello di Pedres,monumento o complesso monumentale,Olbia,"Via Castello Pedrese, s.n.c.",40.87651728,9.487448034,0.0,NON REGISTRATO
Sardegna,Archivio di Stato di Oristano,"museo, galleria e/o raccolta",Oristano,"Piazza Ungheria, 5",39.902818115,8.602805073,0.0,+39 0783 310530// +39 0783 310530 FAX
Sardegna,Sa Domo de sa Poesia Cantada,"museo, galleria e/o raccolta",Silanus,"Piazza Santa Croce, s.n.c.",40.290052072,8.889368475,0.0,+39 070 5435098// +39 3407837789// +39 3279986410
Sardegna,MuSPoS - Museo degli strumenti popolari sardi,"museo, galleria e/o raccolta",Pula,"Piazza del Popolo, s.n.c.",39.012735549,9.002180141,0.0,+39 3383264819// +39 3336677377
Sardegna,CIMA - Civico Museo di Allai,"museo, galleria e/o raccolta",Allai,"Via Parrocchia, 15",39.956759438,8.864133596,3.0,+39 3288789521
Sardegna,Museum Civitatense Basilica di San Simplicio,monumento o complesso monumentale,Olbia,"Piazza San Simplicio, s.n.c.",40.925450919,9.496667253,0.0,+39 3456328150
Sardegna,Archivio di Stato di Sassari,"museo, galleria e/o raccolta",Sassari,"Via Enrico Costa, 57",40.722972107,8.563237394,0.0,+39 079 233470
Sardegna,Biblioteca universitaria di Sassari,"museo, galleria e/o raccolta",Sassari,"Via Enrico Costa, 57",40.722935849,8.563178428,0.0,+39 079 235179// +39 079 235787 FAX
Sardegna,Museo nazionale archeologico ed etnografico Giovanni Antonio Sanna,"museo, galleria e/o raccolta",Sassari,"Via Roma, 64",40.722540468,8.567672176,3.0,+39 079 272203
Sardegna,Cripta di Santa Restituta,area o parco archeologico,Cagliari,"Via Sant'Efisio, 14",39.21894535,9.112870527,2.0,+39 3662562826
Sardegna,Museo diocesano,"museo, galleria e/o raccolta",Iglesias,"Vico Duomo, 1",39.313625227,8.533002275,0.0,+39 0781 435779// +39 0781 252231
Sardegna,Museo diocesano - sezione architettonica,"museo, galleria e/o raccolta",Iglesias,"Via Condotto, 17",39.314502972,8.532805041,0.0,+39 0781 22411
Sardegna,Carcere Spagnolo - Sa Bovida,"museo, galleria e/o raccolta",Aritzo,"Via G. Marconi, s.n.c.",39.956306057,9.196234301,2.0,+39 3898731853// +39 0784 627200
Sardegna,Area di S'Ortali e Su Monti,area o parco archeologico,Tortolì,Località S'Ortali e Su Monti,39.913263435,9.667972502,3.0,+39 0782 32704
Sardegna,Cripta e Chiesa di San Lussorio,monumento o complesso monumentale,Fordongianus,SS 388,39.989712888,8.79819782,2.5,+39 0783 60157
Sardegna,Nuraghe Armungia,area o parco archeologico,Armungia,"Piazza Municipio, s.n.c.",39.522375799,9.383929958,1.5,+39 070 9589011// +39 070 958076 FAX
Sardegna,La Scatola del Tempo,"museo, galleria e/o raccolta",Arzachena,"Corso Garibaldi, 6",41.080395256,9.388130191,0.0,+39 3382377434
Sardegna,Nuraghe di Loelle,area o parco archeologico,Buddusò,SS 389,40.568446267,9.315995263,0.0,+39 079 5610041// +39 3925234333
Sardegna,Necropoli di Ludurru,area o parco archeologico,Buddusò,Località Ludurru,40.584054355,9.266106791,0.0,+39 079 5610041// +39 3925234333// +39 3493912505
Sardegna,"Laveria Giovanni Longu, Miniera Su Zurfuru","museo, galleria e/o raccolta",Fluminimaggiore,SS 126 Miniera Su Zurfuru,39.423393694,8.501294874,0.0,+39 3400001995
Sardegna,Museo di Arte Sacra e Shoah,"museo, galleria e/o raccolta",Cossoine,"Piazza S. Chiara, s.n.c.",40.430661287,8.713928106,0.0,+39 3458522418// +39 079 237057
Sardegna,Museo Archeologico,"museo, galleria e/o raccolta",Olbia,"Isola di Peddona - Porto vecchio, s.n.c.",40.923545346,9.508125525,0.0,+39 0789 28290
Sardegna,Museo Taverna dell'Aquila,"museo, galleria e/o raccolta",Ozieri,"Via del Tempio, 6",40.583287987,9.001332652,0.0,+39 079 786249// +39 3407176230
Sardegna,Torre di Longosardo,monumento o complesso monumentale,Santa Teresa di Gallura,"Via Bechi, s.n.c.",41.24552309,9.192536992,3.0,+39 3498347698// +39 3477412166// +39 3920547979
Sardegna,Museo Bernardo De Muro,"museo, galleria e/o raccolta",Tempio Pausania,"Piazza del Carmine, s.n.c.",40.901032293,9.105028039,0.0,+39 079 671580// +39 079 679972
Sardegna,Museo dello Stazzo e della Civiltà Contadina,"museo, galleria e/o raccolta",Budoni,"Piazza Einaudi, 2",40.708825333,9.700227677,0.0,+39 0784 843061// +39 3403198129
Sardegna,Museo di arte sacra Scrinia Sacra,"museo, galleria e/o raccolta",Guasila,"Via Sailis, 6",39.56182494,9.046369882,0.0,+39 070 986861// +39 3939092833// +39 070 9837934
Sardegna,Museo Geo-Mineralogico Naturalistico,"museo, galleria e/o raccolta",La Maddalena,"Borgo di Stagnali, Isola di Caprera",41.198126481,9.453760768,2.5,+39 3385940560
Sardegna,MIF - Museo dell'imprenditoria femminile Donna Francesca Sanna Sulis,"museo, galleria e/o raccolta",Muravera,"Via Guglielmo Marconi, 99",39.419568842,9.57724035,1.5,+39 3939023141
Sardegna,Museo del Sughero,"museo, galleria e/o raccolta",Calangianus,"Via San Francesco, 3",40.922316239,9.191277074,3.0,+39 079 662034// +39 3463693859
Sardegna,Museo del Mare e delle Tradizioni Marinaresche,"museo, galleria e/o raccolta",La Maddalena,"Borgo di Stagnali, Isola di Caprera",41.197601819,9.453178865,0.0,+39 3458004279// +39 3406909913
Sardegna,Casa Devilla,"museo, galleria e/o raccolta",Aritzo,"Via Caserma, 1",39.957527153,9.196759126,2.0,+39 3898731853// +39 0784 627200
Sardegna,Museo Mura,"museo, galleria e/o raccolta",Aritzo,"Pratz'e Iscola, 11",39.955466412,9.197740031,2.0,+39 3898731853// +39 0784 627200
Sardegna,Lazzaretto di Cagliari,"museo, galleria e/o raccolta",Cagliari,"Viale Borgo Sant’Elia, s.n.c.",39.191149703,9.139435746,0.0,+39 070 3838085// +39 340 1433096// +39 349 8162529
Sardegna,Archivio Digitale e installazione museale Rixe per la cultura Tabarchina,"museo, galleria e/o raccolta",Calasetta,"Via Umberto I, 61",39.109279973,8.371082433,3.0,+39 3473626183// +39 3288836251// +39 078 1840717
Sardegna,"Museo Civico “Sigerro""","museo, galleria e/o raccolta",Domusnovas,"Corso Repubblica, 31/33",39.321473181,8.647694157,0.0,+39 3284757420
Sardegna,Museo Civico Pedru Serra,"museo, galleria e/o raccolta",Sagama,"Via Regina Elena, 27",40.261402113,8.578036968,3.0,+39 3288789521
Sardegna,Centro di Documentazione e Studio sulla Sartiglia,"museo, galleria e/o raccolta",Oristano,"Via Eleonora, 15",39.903396999,8.591380843,2.0,+39 0783303159// +39 0783302481
Sardegna,Museo etnografico “Luigi Pirisino - Casa Franco”,"museo, galleria e/o raccolta",Monti,"Piazza del Mandorlo, 10",40.804713765,9.324718007,0.0,+39 3476222858// +39 3347457999
Sicilia,Museo regionale casa-museo Antonino Uccello a Palazzolo Acreide,"museo, galleria e/o raccolta",Palazzolo Acreide,"via machiavelli, Palazzolo Acreide, Italia",37.0627777,14.9022281,2.0,0931 881499
Sicilia,Area archeologica Parco Forza,area o parco archeologico,Ispica,"via cavagrande, Ispica, Italia",37.587794,14.155048,2.0,0932952608
Sicilia,Villa Romana di San Biagio,area o parco archeologico,Terme Vigliatore,"via nazionale, Terme Vigliatore, Italia",38.1258908,15.1359684,0.0,0909740488
Sicilia,Palazzo Ajutamicristo,monumento o complesso monumentale,Palermo,"via garibaldi, Palermo, Italia",38.0771567,13.4414775,0.0,0917071425 - 3357957161
Sicilia,Museo delle Tradizioni silvo-pastorali di Mistretta,"museo, galleria e/o raccolta",Mistretta,"via libertà, Mistretta, Italia",37.9269797,14.3600042,0.0,0921381696 (temporaneamente disattivato)
Sicilia,Villino Florio e Giardino,area o parco archeologico,Palermo,"via regina margherita, Palermo, Italia",37.7497333,13.6056548,0.0,0917025471 - 0917071425
Sicilia,Castello di Bauso,monumento o complesso monumentale,Villafranca Tirrena,"piazza castello, Villafranca Tirrena, Italia",38.23188685,15.435171229694838,0.0,090334948
Sicilia,Bagni di Cefalà Diana,area o parco archeologico,Cefala' Diana,"Cefala' Diana, Italia",37.9151751,13.463549,0.0,0917071425 - Rangers 0918291551
Sicilia,Area archeologica di Monte Sant'Angelo e Castel Sant'Angelo,area o parco archeologico,Licata,"Licata, Italia",37.1016361,13.9376147,0.0,0922772602
Sicilia,Giardino di Villa Caronia,parco naturalistico,Taormina,"via pirandello, Taormina, Italia",37.8544768,15.291168838549863,0.0,Direzione Tel : 0942628738 Fax : 0942628738
Sicilia,Area archeologica di Licata,area o parco archeologico,Licata,"Licata, Italia",37.1016361,13.9376147,0.0,0922772602
Sicilia,Zona Archeologica,"museo, galleria e/o raccolta",Ravanusa,"Ravanusa, Italia",37.2679139,13.9732545,0.0,Centralino Soprintendenza BB.CC.AA. di Agrigento 0922552611
Sicilia,Terme della Rotonda,area o parco archeologico,Catania,"via della mecca, Catania, Italia",37.5039663,15.0831271,0.0,095/7150508 - polomuseale.ct@regione.sicilia.it  poloregionalect.urp@regione.sicilia.it
Sicilia,Terme Romane dell'Indirizzo,area o parco archeologico,Catania,"piazza currò, Catania, Italia",37.50094865,15.085990294446532,0.0,095/7150508- polomuseale.ct@regione.sicilia.it  poloregionalect.urp@regione.sicilia.it
Sicilia,"Museo archeologico ""Salvatore Lauricella""","museo, galleria e/o raccolta",Ravanusa,"corso della repubblica, Ravanusa, Italia",37.2679168,13.9750818,0.0,NON REGISTRATO
Sicilia,Santa Maria dei Greci,monumento o complesso monumentale,Agrigento,"via santa maria dei greci, Agrigento, Italia",37.3129813,13.5781662,0.0,Centralino Soprintendenza BB.CC.AA. di Agrigento 0922552611
Sicilia,Museo regionale interdisciplinare di Enna,"museo, galleria e/o raccolta",Enna,"piazza mazzini, Enna, Italia",37.566621100000006,14.282717000593411,0.0,09355076304 - fax 09355076323
Sicilia,Area archeologica Halaesa Arconidea,area o parco archeologico,Tusa,"Tusa, Italia",37.983855,14.236065,0.0,NON REGISTRATO
Sicilia,Area archeologica Gibil Gabib,area o parco archeologico,Caltanissetta,"Caltanissetta, Italia",37.4899412,14.0631618,0.0,0934554964
Sicilia,Area archeologica e Antiquarium di Sabucina,area o parco archeologico,Caltanissetta,"Caltanissetta, Italia",37.4899412,14.0631618,0.0,0934554964
Sicilia,Museo archeologico regionale di Centuripe,"museo, galleria e/o raccolta",Centuripe,"via ss. crocifisso, Centuripe, Italia",37.587794,14.155048,0.0,093573079
Sicilia,Convento della Magione,monumento o complesso monumentale,Palermo,"piazza magione, Palermo, Italia",38.1130081,13.3696503,0.0,0917071425  - 0917071411
Sicilia,Giardino di Villa Napoli e Piccola Cuba,monumento o complesso monumentale,Palermo,"via f. speciale, Palermo, Italia",37.587794,14.155048,0.0,3346001743 - 0917071425
Sicilia,Area archeologica monumentale di Castello a Mare,area o parco archeologico,Palermo,"via patti, Palermo, Italia",38.1692901,13.3208956,2.0,0917071317/411
Sicilia,Museo archeologico regionale della Badia,"museo, galleria e/o raccolta",Licata,"via dante, Licata, Italia",42.727615,11.5422635,0.0,0922 772602
Sicilia,Area archeologica di Palike',area o parco archeologico,Mineo,"Mineo, Italia",37.2648752,14.6908487,0.0,3315771468
Sicilia,Castello della Favara a Maredolce,"museo, galleria e/o raccolta",Palermo,"via giafar, Palermo, Italia",38.0873113,13.4076963,0.0,0917071425 - 3357957161
Sicilia,Castello della Cuba e Necropoli Punica,area o parco archeologico,Palermo,"corso calatafimi, Palermo, Italia",38.1032167,13.3306972,2.0,0917071425 - 091590299
Sicilia,Museo archeologico regionale di Marianopoli,"museo, galleria e/o raccolta",Marianopoli,"viale regione siciliana, Marianopoli, Italia",37.587794,14.155048,0.0,0934554964
Sicilia,Casina Cinese,monumento o complesso monumentale,Palermo,"via duca degli abruzzi, Palermo, Italia",38.1662163,13.3302067,0.0,091 7071317/411
Sicilia,Area archeologica dell'Antica Cossyra,area o parco archeologico,Pantelleria,"Pantelleria, Italia",36.8314576,11.9450395,0.0,0923808111
Sicilia,Antiquarium di Milazzo,area o parco archeologico,Milazzo,"via impallomeni, Milazzo, Italia",37.587794,14.155048,0.0,0909223471
Sicilia,Area archeologica di Leontinoi,area o parco archeologico,Carlentini,"Carlentini, Italia",37.2758806,15.0149783,0.0,0957832962 (presso Museo)
Sicilia,Anfiteatro Romano di Catania,area o parco archeologico,Catania,"piazza stesicoro, Catania, Italia",37.5074251,15.085904747430828,0.0,095/7150508 polomuseale.ct@regione.sicilia.it  poloregionalect.urp.@regione.sicilia.it
Sicilia,Grotta del Genovese - Levanzo,area o parco archeologico,Favignana,"Favignana, Italia",37.9314018,12.3274291,0.0,0923808111
Sicilia,Area archeologica Cave di Cusa Vincenzo Tusa,area o parco archeologico,Campobello di Mazara,"Campobello di Mazara, Italia",37.635838,12.744338,2.0,092446277
Sicilia,Museo regionale interdisciplinare di Ragusa,"museo, galleria e/o raccolta",Ragusa,"via natalelli, Ragusa, Italia",36.923601,14.7261401,0.0,0932622963 - fax 0932622963
Sicilia,Museo archeologico regionale di Lentini,"museo, galleria e/o raccolta",Lentini,"via museo, Lentini, Italia",37.587794,14.155048,0.0,0957832962
Sicilia,Area archeologica e Villa Romana del Tellaro,area o parco archeologico,Noto,"Noto, Italia",36.8908864,15.0706454,0.0,0931573883
Sicilia,Ipogeo Romano,area o parco archeologico,Catania,"via g. sanfilippo, Catania, Italia",37.587794,14.155048,0.0,095/7150508 polomuseale.ct@regione.sicilia.it - poloregionalect.urp@regione.sicilia.it
Sicilia,Museo regionale di Adrano,"museo, galleria e/o raccolta",Adrano,"piazza umberto i, Adrano, Italia",37.587794,14.155048,2.0,TEL. 0957691622 - 0957602608
Sicilia,Area archeologica Caucana,area o parco archeologico,Santa Croce Camerina,"via delle anticaglie, Santa Croce Camerina, Italia",37.587794,14.155048,0.0,NON REGISTRATO
Sicilia,Zona Archeologica,area o parco archeologico,Naro,"Naro, Italia",37.29622,13.7915674,0.0,Centralino Soprintendenza BB.CC.AA. di Agrigento 0922552611
Sicilia,Area archeologica Vassallaggi,area o parco archeologico,San Cataldo,"San Cataldo, Italia",37.4914458,13.9935156,0.0,0934554964
Sicilia,Museo archeologico di Palazzo Cappellani,"museo, galleria e/o raccolta",Palazzolo Acreide,"via gaetano italia, Palazzolo Acreide, Italia",37.0618771,14.9056396,0.0,0931875575
Sicilia,Area archeologica Bagni Greci di Gela,area o parco archeologico,Gela,"via europa, Gela, Italia",37.0742041,14.2317363,0.0,0933 912626
Sicilia,Chiesa di San Francesco Borgia,monumento o complesso monumentale,Catania,"via crociferi, Catania, Italia",37.5032901,15.0847567,0.0,095310762
Sicilia,Area archeologica di Capo d'Orlando,area o parco archeologico,Capo d'Orlando,"Capo d'Orlando, Italia",38.1595733,14.7450733,0.0,0941955401
Sicilia,Area archeologica di Sant'Angelo Muxaro,area o parco archeologico,Sant'Angelo Muxaro,"Sant'Angelo Muxaro, Italia",37.4790152,13.5443155,0.0,0922 919806
Sicilia,"Zona Archeologica ""Vito Soldano""",area o parco archeologico,Canicatti',"Canicatti', Italia",37.358942,13.850364,0.0,Centralino Soprintendenza BB.CC.AA. di Agrigento 0922552611
Sicilia,Castello Maniace,monumento o complesso monumentale,Siracusa,"Siracusa, Italia",37.0646139,15.2907196,2.0,0931464420
Sicilia,Area archeologica Villa Bonanno,area o parco archeologico,Palermo,"piazza della vittoria, Palermo, Italia",38.11235859999999,13.355301709826016,0.0,0917071317/411
Sicilia,Area Archeologica dell’antica Apollonia,area o parco archeologico,San Fratello,"San Fratello, Italia",38.0134424,14.5973915,0.0,"09036746433, URP-Soprintendenza di Messina"
Sicilia,Area Archeologica. Grotta di San Teodoro,area o parco archeologico,Acquedolci,"Acquedolci, Italia",38.0560399,14.5819013,0.0,0941730005
Sicilia,Zona archeologica di Tranchina,"museo, galleria e/o raccolta",Sciacca,"Sciacca, Italia",37.5064786,13.0823323,0.0,Centralino Soprintendenza BB.CC.AA. di Agrigento 0922552611
Sicilia,Castello di Spadafora,monumento o complesso monumentale,Spadafora,"via nazionale, Spadafora, Italia",37.587794,14.155048,0.0,090 36894435 (URP)
Sicilia,Area archeologica Monte Jato,area o parco archeologico,San Cipirello,"San Cipirello, Italia",37.96296,13.1753795,0.0,0918577943
Sicilia,Monastero Maria SS. della Valle - Badiazza,monumento o complesso monumentale,Messina,"Messina, Italia",38.1937571,15.5542082,0.0,NON REGISTRATO
Sicilia,Museo archeologico regionale Antonino Salinas di Palermo,"museo, galleria e/o raccolta",Palermo,"via bara all'olivella, Palermo, Italia",38.1213026,13.3619652,0.0,0916116807 - 0916116806 - FAX 0916110740
Sicilia,Area archeologica Santa Venera al Pozzo,area o parco archeologico,Aci Catena,"via alimena, Aci Catena, Italia",37.5833364,15.153924,0.0,0957150508 (Uffici del Polo Museale)
Sicilia,Convento della Croce,monumento o complesso monumentale,Scicli,"Scicli, Italia",36.7935701,14.7069644,2.0,0932249440/456 info:polomuseale.rg@regione.sicilia.it
Sicilia,Abbazia e Monastero dei SS. Pietro e Paolo d’Agrò,monumento o complesso monumentale,Casalvecchio Siculo,"Casalvecchio Siculo, Italia",37.958162,15.322588,0.0,"09036746433, URP della Soprintendenza di Messina"
